id,name,country,region,wmo,icao,latitude,longitude,elevation,timezone,hourly_start,hourly_end,daily_start,daily_end,monthly_start,monthly_end,milesfromstat
0CNUO,Rawson Lake,CA,ON,,,49.65,-93.72,358.0,America/Rainy_River,,,2000-01-01,2022-08-10,2000-01-01,2022-01-01,701.7676669528157
0CO7B,Kingsville Moe,CA,ON,,,42.04,-82.67,200.0,America/Toronto,,,2000-01-01,2022-09-17,2000-01-01,2021-01-01,56.68356443450756
0FV1F,Tillsonburg Wwtp,CA,ON,,,42.86,-80.72,213.0,America/Toronto,,,2000-01-01,2022-09-18,2000-01-01,2021-01-01,160.56015709302665
13178,Jamestown,CA,ON,,,43.8,-81.18,319.0,America/Toronto,,,2006-04-01,2015-07-04,2006-01-01,2015-01-01,169.51975895354354
1J1PJ,Gore Bay,CA,ON,71956,,45.88,-82.57,189.0,America/Nipigon,2020-01-01,2022-09-21,2010-07-09,2022-09-18,2010-01-01,2022-01-01,259.1772146573859
1JWST,Lake Superior Provincial Park,CA,ON,71640,,47.72,-84.81,401.0,America/Nipigon,2020-01-01,2022-09-21,2013-11-19,2022-09-19,2014-01-01,2022-01-01,383.14634483916643
20QWH,Rennie,CA,MB,,,49.85,-95.53,323.0,America/Winnipeg,,,2000-01-01,2022-09-15,2000-01-01,2009-01-01,772.1467890298829
21O3U,Royal Island,CA,ON,71859,,49.47,-94.76,329.0,America/Rainy_River,2020-09-23,2022-09-20,2016-01-07,2022-09-17,2016-01-01,2022-01-01,728.770717802805
2FXL8,Sandfield,CA,ON,,,45.69,-81.98,231.0,America/Nipigon,,,2000-01-01,2018-05-30,2000-01-01,2018-01-01,255.03196479804078
2W8UZ,Chatham Kent,CA,ON,,,42.31,-82.08,197.0,America/Toronto,2020-01-01,2022-09-21,2018-10-29,2022-09-19,2018-01-01,2022-01-01,85.5976645075707
3S56J,Rawson Lake,CA,ON,71855,,49.66,-93.73,435.0,America/Rainy_River,2020-01-01,2022-09-20,2003-12-01,2022-09-18,2003-01-01,2021-01-01,702.5677577138224
44BUQ,Stratford Wwtp,CA,ON,,,43.37,-81.0,345.0,America/Toronto,,,2000-01-01,2016-10-10,2000-01-01,2006-01-01,160.4504503036307
4DUJO,Fergus Shand Dam,CA,ON,,,43.73,-80.33,418.0,America/Toronto,,,2000-01-01,2022-09-18,2000-01-01,2022-01-01,201.94944276131008
58G7B,St Alphonse,CA,MB,,,49.45,-99.02,403.0,America/Winnipeg,,,2000-01-01,2016-06-12,2000-01-01,2016-01-01,887.7867408616615
5KQCG,Mahnomen County Airport,US,MN,,K3N8,47.2605,-95.9281,383.0,America/Chicago,2022-05-06,2022-09-21,,,,,691.989422204492
5RUZT,Woodstock,CA,ON,,,43.14,-80.77,282.0,America/Toronto,,,2000-01-01,2022-09-09,2000-01-01,2006-01-01,164.21712339043816
6N2T2,Chatham Wpcp,CA,ON,,,42.39,-82.22,180.0,America/Toronto,,,2000-01-01,2019-02-20,2000-01-01,2006-01-01,79.00572568261224
6URQB,Portage La Prairie CDA,CA,MB,,,49.95,-98.27,259.0,America/Winnipeg,,,2000-01-01,2022-09-16,2000-01-01,2022-01-01,876.1028198691641
71140,Brandon Airport,CA,MB,71140,CYBR,49.91,-99.95,409.0,America/Winnipeg,1977-07-01,2022-09-22,1941-07-01,2022-09-19,1941-01-01,2022-01-01,939.5808714929723
71147,Carman U Of M CS,CA,MB,71147,CWNK,49.5,-98.03,268.0,America/Winnipeg,1996-11-01,2022-09-22,1995-06-27,2022-09-18,1995-01-01,2022-01-01,850.7261511763694
71148,Pilot Mound,CA,MB,71148,CWPO,49.19,-98.9,470.0,America/Winnipeg,1957-12-04,2022-09-22,1957-12-01,2022-09-18,1957-01-01,2022-01-01,874.5568568704755
71170,Carberry CS,CA,MB,71170,CWCM,49.91,-99.36,384.0,America/Winnipeg,1994-09-01,2022-09-20,1994-07-27,2022-09-18,1995-01-01,2022-01-01,916.5088167539558
71172,Parry Sound,CA,ON,71172,CXPC,45.34,-80.04,176.0,America/Nipigon,2004-08-03,2022-09-22,2002-10-03,2022-09-18,2002-01-01,2022-01-01,283.950926627458
71260,Sault Ste Marie Airport,CA,ON,71260,CYAM,46.49,-84.51,192.0,America/Toronto,1986-04-25,2022-09-22,1986-04-26,2022-09-19,1994-01-01,2022-01-01,297.0396863773898
71261,Goderich,CA,ON,71261,CWGD,43.77,-81.72,214.0,America/Toronto,1981-10-26,2022-09-22,1981-10-27,2022-09-20,1983-01-01,2022-01-01,148.10639571311594
71268,Elliot Lake,CA,ON,,CYEL,46.3514,-82.5614,331.0,America/Nipigon,1978-01-11,2012-04-02,,,,,291.02506821427204
71270,Collingwood,CA,ON,71270,CWCO,44.5,-80.22,180.0,America/Toronto,1994-12-01,2022-09-22,1994-12-30,2022-09-18,1995-01-01,2022-01-01,237.11643024214186
71273,Belle River,CA,SK,,KWDD,42.3,-82.7,184.0,America/Toronto,1994-12-01,2022-08-23,1995-01-07,2022-09-18,2009-01-01,2022-01-01,53.87011311418829
71283,Oliphant  Ont,CA,AB,,CWDF,44.7333,-81.2833,182.0,America/Toronto,,,2008-06-06,2022-09-18,2008-01-01,2022-01-01,212.94539721350938
71291,Cameron Falls,CA,ON,71291,CXCA,49.15,-88.34,233.0,America/Nipigon,2003-06-17,2022-09-22,1998-03-09,2022-09-18,1998-01-01,2022-01-01,527.309502634679
71292,Cyprus Lake / Tobermory,CA,ON,,CXCY,45.2333,-81.5333,190.0,America/Toronto,2003-06-17,2022-08-23,2004-09-22,2022-09-18,2008-01-01,2022-01-01,235.4744027253901
71298,Harrow CDA,CA,ON,71298,CXHA,42.03,-82.9,191.0,America/Toronto,2003-06-17,2022-09-22,2000-07-26,2022-09-18,2000-01-01,2022-01-01,45.442063683100734
71299,Kapuskasing CDA On,CA,ON,71299,CXKA,49.41,-82.44,218.0,America/Nipigon,2003-06-17,2022-09-22,2000-08-23,2022-09-18,2000-01-01,2022-01-01,500.3293995447527
71301,Kirkland Lake CS,CA,ON,71301,CYKX,48.15,-80.0,324.0,America/Nipigon,2004-09-21,2022-08-26,1997-06-02,2022-08-24,1997-01-01,2022-01-01,448.1676008121488
71303,Point Pelee CS,CA,ON,71303,CXPT,41.95,-82.52,177.0,America/Toronto,2004-08-24,2022-09-20,1999-01-01,2022-09-18,1999-01-01,2022-01-01,65.76588939761638
71307,Ridgetown RCS,CA,ON,71307,,42.45,-81.88,206.0,America/Toronto,2004-05-10,2022-09-17,2003-02-01,2022-09-12,2003-01-01,2022-01-01,96.80958533996177
71352,Elora RCS,CA,ON,71352,CZEL,43.65,-80.42,376.0,America/Toronto,2004-06-08,2022-09-22,1969-03-01,2022-09-18,1969-01-01,2022-01-01,195.30607574827482
71368,Kitchener/waterloo,CA,ON,71368,CYKF,43.46,-80.38,322.0,America/Toronto,1993-05-20,2022-09-22,2002-10-03,2022-09-18,2008-01-01,2022-01-01,191.0798101158478
71433,Caribou Island,CA,ON,71433,CWCI,47.33,-85.83,187.0,America/Nipigon,1980-03-01,2022-09-22,1980-03-11,2022-09-20,1996-01-01,2021-01-01,367.2063142359635
71435,Upsala,CA,ON,71435,CWDV,49.03,-90.47,488.0,America/Nipigon,1981-10-26,2022-09-22,1973-01-01,2022-09-18,1973-01-01,2022-01-01,571.4790082405755
71438,Western Island,CA,ON,71438,CWMZ,45.03,-80.37,191.0,America/Nipigon,1984-06-07,2022-09-22,1984-06-10,2022-09-20,1995-01-01,2022-01-01,257.2657077435178
71439,Cove Island,CA,ON,71439,CWWX,45.33,-81.73,181.0,America/Toronto,1985-09-10,2021-05-11,1985-09-12,2021-05-10,1995-01-01,2019-01-01,237.0001399252633
71441,Gretna,CA,MB,71441,CWGN,49.03,-97.56,253.0,America/Winnipeg,1981-10-26,2022-09-20,1885-04-20,2022-09-18,1885-01-01,2022-01-01,815.9604488886299
71449,Sprague,CA,MB,71449,CWSU,49.02,-95.6,329.0,America/Winnipeg,2001-09-16,2022-09-21,1992-12-01,2022-09-18,1993-01-01,2022-01-01,740.3779605331467
71460,Killarney,CA,ON,71460,CWBE,45.97,-81.48,196.0,America/Toronto,1985-09-10,2022-09-22,1985-09-13,2022-09-20,1996-01-01,2022-01-01,282.16637529595744
71461,Trowbridge Island,CA,AB,,CPEL,48.3,-88.8667,218.0,America/Thunder_Bay,1984-09-21,2022-08-24,1984-09-23,2022-09-18,2008-01-01,2022-01-01,488.0924151435063
71462,Great Duck Island,CA,ON,71462,CWNL,45.63,-82.95,183.0,America/Nipigon,1985-04-09,2021-05-12,1986-01-01,2021-05-11,1995-01-01,2020-01-01,238.54585197928986
71464,Long Point,CA,ON,71464,CWPS,42.53,-80.05,175.0,America/Toronto,1986-01-09,2022-03-15,1986-05-02,2019-10-15,1996-01-01,2019-01-01,190.29560515623035
71465,Erieau,CA,ON,71465,CWAJ,42.25,-81.9,178.0,America/Toronto,1986-01-17,2022-09-22,1986-01-29,2022-09-20,1995-01-01,2021-01-01,94.6773342309475
71466,Southeast Shoal,CA,ON,71466,CWNB,41.83,-82.47,195.0,America/Toronto,1985-12-01,2016-12-16,1986-02-13,2014-06-28,1995-01-01,2013-01-01,71.02430500104099
71468,Little Flatland Island,CA,ON,71468,CWKK,49.69,-88.31,261.0,America/Nipigon,1992-10-08,2022-09-22,1992-11-03,2022-09-18,2006-01-01,2021-01-01,560.3591075771401
71527,"Simcoe, Ontario",CA,ON,,CWSI,42.85,-80.2667,241.0,America/Toronto,,,2010-09-24,2022-09-18,2011-01-01,2022-01-01,182.76756778114824
71538,Windsor Airport,CA,ON,71538,CYQG,42.28,-82.96,190.0,America/Toronto,1955-07-02,2022-09-22,1940-08-01,2022-09-20,1940-01-01,2022-01-01,40.47539468591726
71559,Terrace Bay,CA,ON,,CYTJ,48.8167,-87.1,290.0,America/Nipigon,1982-08-06,2022-08-24,2011-11-28,2022-09-18,2011-01-01,2022-01-01,483.4785124272933
71560,Emerson,CA,MB,71560,,49.0,-97.24,242.0,America/Chicago,2001-09-16,2022-09-21,2009-07-23,2022-09-18,2009-01-01,2022-01-01,802.3553751673983
71564,Morden CDA CS,CA,MB,71564,CXMD,49.19,-98.08,298.0,America/Winnipeg,2001-09-16,2022-09-22,1999-12-01,2022-09-18,1999-01-01,2022-01-01,841.9297784428189
71573,Delhi CS,CA,ON,71573,CXDI,42.87,-80.55,232.0,America/Toronto,2001-09-16,2022-09-22,1997-06-02,2022-09-18,1997-01-01,2022-01-01,169.08914727233378
71579,Winnipeg The Forks,CA,MB,71579,CXWN,49.89,-97.13,230.0,America/Winnipeg,2001-09-16,2022-09-22,1999-11-01,2022-09-18,1999-01-01,2022-01-01,831.2682511583678
71582,Dryden,CA,ON,,CYHD,49.8317,-92.7333,413.0,America/Winnipeg,1962-01-01,2022-09-22,1977-07-01,2022-09-18,2006-01-01,2022-01-01,679.5301566230653
71623,London International Airport,CA,ON,71623,CYXU,43.03,-81.15,278.0,America/Toronto,1955-07-02,2022-09-22,1982-01-03,2022-09-18,2000-01-01,2022-01-01,143.54523337075454
71631,Mount Forest,CA,ON,71631,CWLS,43.98,-80.75,414.0,America/Toronto,1962-01-01,2022-09-22,1977-07-04,2022-09-20,1995-01-01,2022-01-01,194.068589173872
71632,"Britt, Ontario",CA,ON,,CWBI,45.8,-80.5333,190.0,America/Nipigon,2017-02-28,2017-03-15,1977-07-01,2022-09-18,1981-01-01,2022-01-01,294.23847998671044
71633,Wiarton Airport,CA,ON,71633,CYVV,44.74,-81.11,222.0,America/Toronto,1950-01-01,2022-09-22,1947-07-04,2022-09-19,1947-01-01,2022-01-01,218.48443857011333
71634,Sarnia Airport,CA,NB,,CYZR,43.0,-82.3167,181.0,America/Toronto,2004-03-21,2022-09-22,2006-01-04,2022-09-18,2007-01-01,2022-01-01,90.46307405870225
71637,Dryden,CA,ON,,CXDR,49.8583,-92.7971,410.0,America/Rainy_River,2014-04-04,2022-08-25,,,,,682.8168388331228
71642,Chapleau Airport,CA,ON,71642,CYLD,47.82,-83.35,448.0,America/Toronto,1996-11-01,2022-09-22,1978-07-01,2022-04-23,1978-01-01,2018-01-01,386.980948864923
71655,Rawson Lake / Hawk Lake,CA,ON,,CTRA,49.6642,-93.7328,435.0,America/Rainy_River,2009-09-23,2022-09-22,2009-09-24,2022-04-26,2009-01-01,2021-01-01,702.857994558957
71660,Timmins / Strickland,CA,ON,,CXTI,49.2815,-81.7941,244.0,America/Nipigon,2014-04-04,2022-08-25,2017-03-10,2022-04-15,2017-01-01,2021-01-01,496.4815795992823
71667,Thunder Bay CS,CA,ON,71667,CZTB,48.37,-89.33,199.0,America/Thunder_Bay,2005-01-01,2022-09-22,2003-10-01,2022-09-15,2003-01-01,2022-01-01,503.9469732904038
71704,Sarnia,CA,ON,71704,,43.0,-82.31,181.0,America/Toronto,2020-01-01,2022-09-21,2009-12-17,2022-09-18,2010-01-01,2022-01-01,90.73837443356858
71730,Sudbury Airport,CA,ON,71730,CYSB,46.63,-80.8,348.0,America/Toronto,1955-07-02,2022-09-22,1954-02-09,2022-09-19,1954-01-01,2022-01-01,337.3305068646622
71733,"Gore Bay, Ontario",CA,ON,,CYZE,45.8833,-82.5667,193.0,America/Nipigon,1955-07-02,2022-09-22,1977-07-01,2022-09-18,1977-01-01,2022-01-01,259.43595000674213
71738,Wawa Airport,CA,ON,71738,CYXZ,47.97,-84.79,288.0,America/Nipigon,1977-07-01,2022-09-22,1977-01-01,2022-04-25,1977-01-01,2018-01-01,400.1235887662229
71739,Timmins Airport,CA,ON,71739,CYTS,48.57,-81.38,295.0,America/Toronto,1955-07-02,2022-09-22,1955-04-01,2022-09-19,1955-01-01,2022-01-01,453.11401876776716
71747,Atikokan,CA,ON,71747,CYIB,48.76,-91.63,389.0,America/Atikokan,2020-01-01,2022-09-20,2000-12-13,2022-09-18,2001-01-01,2022-01-01,591.3482699582223
71748,Atikokan,CA,MB,,CWCH,48.75,-91.6167,424.0,America/Atikokan,2001-09-16,2022-08-25,2005-01-01,2022-09-18,2006-01-01,2022-01-01,590.4285681515731
71749,"Thunder Bay, Ontario",CA,ON,71749,CYQT,48.3667,-89.3167,199.0,America/Thunder_Bay,1955-07-02,2022-09-22,1957-01-02,2022-04-25,1957-01-01,2022-01-01,503.4111789810183
71750,Pukaskwa,CA,ON,71750,CWCJ,48.61,-86.29,192.0,America/Nipigon,2005-01-01,2022-09-22,1996-08-13,2022-09-18,1996-01-01,2022-01-01,458.03975053690016
71751,Welcome Island,CA,ON,71751,CWEC,48.37,-89.12,211.0,America/Thunder_Bay,1996-11-01,2022-09-20,1967-05-01,2022-09-18,1967-01-01,2022-01-01,498.5189132930086
71767,Tobermory RCS,CA,ON,71767,CTTS,45.23,-81.63,214.0,America/Toronto,2007-02-28,2022-09-20,2007-01-25,2022-09-18,2007-01-01,2022-01-01,233.03691076018015
71831,Kapuskasing Airport,CA,ON,71831,CYYU,49.41,-82.47,226.0,America/Toronto,1950-01-01,2022-09-22,1937-04-01,2022-09-19,1937-01-01,2022-01-01,500.1498926824238
71832,Nagagami,CA,ON,71832,CWNZ,49.75,-84.16,264.0,America/Nipigon,1982-01-01,2022-09-22,1982-01-01,2022-09-20,1982-01-01,2022-01-01,520.2404461080697
71834,Geraldton Airport,CA,ON,71834,CYGQ,49.78,-86.94,348.0,America/Toronto,1982-01-01,2022-08-26,1981-08-01,2022-09-13,1981-01-01,2022-01-01,543.9728705494583
71840,Deerwood RCS,CA,MB,71840,CXDW,49.4,-98.32,341.0,America/Winnipeg,2004-11-14,2022-09-22,2000-01-01,2022-09-18,2000-01-01,2022-01-01,858.5287061395345
71849,Winnipeg Airport CS,CA,MB,71849,,49.92,-97.25,239.0,America/Winnipeg,2001-09-16,2022-09-20,1996-10-01,2022-09-17,1996-01-01,2022-01-01,836.860088248876
71850,Kenora Airport,CA,ON,71850,CYQK,49.79,-94.36,410.0,America/Winnipeg,1955-07-04,2022-09-22,1938-08-26,2022-09-19,1938-01-01,2022-01-01,729.4595695973454
71851,Portage Southport,CA,MB,71851,CYPG,49.9,-98.28,273.0,America/Winnipeg,1955-07-02,2022-09-21,1941-07-01,2022-09-17,1941-01-01,2022-01-01,874.6572491372044
71852,Winnipeg Airport,CA,MB,71852,CYWG,49.9,-97.2333,239.0,America/Winnipeg,1955-07-02,2022-09-22,1938-01-03,2022-04-25,1938-01-01,2022-01-01,835.4658984485694
71853,Shilo,CA,MB,71853,CWLO,49.7833,-99.6333,373.0,America/Winnipeg,1993-08-02,2013-07-03,1954-07-01,1995-11-06,1954-01-01,1970-01-01,922.9674636335963
71962,Fort Frances RCS,CA,ON,71962,CTAG,48.65,-93.44,342.0,America/Winnipeg,2008-04-29,2022-09-20,2007-10-08,2022-09-18,2007-01-01,2022-01-01,646.477979942586
72013,Saratoga,US,IL,72013,KC09,41.43,-88.42,178.0,America/Chicago,2006-02-02,2022-09-22,2011-03-17,2022-04-25,2014-01-01,2022-01-01,247.3891730598649
72014,Sparland,US,IL,72014,KC75,41.02,-89.38,173.0,America/Chicago,2006-02-22,2022-09-22,2011-03-16,2022-04-25,2017-01-01,2022-01-01,303.2921070549521
72019,Munsing Lakeshore,US,MI,72019,KP53,46.4167,-86.65,187.0,America/Detroit,2006-01-01,2022-09-22,2006-01-01,2022-04-24,2006-01-01,2022-01-01,323.3151623505829
72034,Frankfort / Elberta,US,MI,72034,KFKS,44.6252,-86.2008,193.0,America/Detroit,2006-01-01,2022-09-22,2006-01-01,2022-04-25,2006-01-01,2022-01-01,206.77058119147733
72420,Mansfield / Amoy,US,OH,72420,KMFD,40.8214,-82.5166,395.0,America/New_York,2005-01-01,2022-09-22,1948-08-01,2022-09-14,1948-01-01,2022-01-01,115.83764509428117
72428,Port Columbus International  Airport,US,OH,72428,KCMH,40.0,-82.05,248.0,America/New_York,1945-04-01,2022-09-22,1945-04-01,2022-09-14,1945-01-01,2022-01-01,177.08831415771667
72516,Bennington / Napoleon,US,VT,72516,K5B5,46.4944,-99.7601,604.0,America/New_York,,,2006-06-03,2022-09-14,2006-01-01,2021-01-01,844.4960257193547
72520,Greater Pittsburgh International,US,PA,72520,KPIT,40.4833,-80.0667,367.0,America/New_York,1945-02-01,2022-09-22,1945-02-01,2022-09-14,1945-01-01,2022-01-01,225.8191735795129
72521,Akron-Canton Regional Airport,US,OH,72521,KCAK,40.9167,-81.45,374.0,America/New_York,1973-01-01,2022-09-22,1948-07-01,2022-09-14,1948-01-01,2022-01-01,149.26079234411594
72524,Cleveland-Hopkins International,US,OH,72524,KCLE,41.4,-81.85,241.0,America/New_York,1973-01-01,2022-09-22,1938-05-01,2022-09-14,1938-01-01,2022-01-01,113.15819407798126
72525,Youngstown-Warren Reg Airprt,US,OH,72525,KYNG,41.25,-80.6667,365.0,America/New_York,1948-01-01,2022-09-22,1934-08-01,2022-09-14,1934-01-01,2022-01-01,172.72974566141107
72526,Erie International Airport,US,PA,72526,KERI,42.0833,-80.1833,223.0,America/New_York,1973-01-01,2022-09-22,1926-01-01,2022-09-14,1926-01-01,2022-01-01,183.19113309129347
72530,Chicago Oâ€™hare Airport,US,IL,72530,KORD,41.9833,-87.9167,204.0,America/Chicago,1946-10-01,2022-09-22,1946-10-09,2022-09-14,1946-01-01,2022-01-01,215.00120045122688
72531,"Rantoul / Chanute Air Force Base, Il.",US,IL,72531,KTIP,40.3,-88.15,0.0,America/Chicago,2006-02-03,2022-09-22,2011-03-18,2022-04-25,2015-01-01,2022-01-01,264.91941682113855
72532,Greater Peoria Regional Airport,US,IL,72532,KPIA,40.6667,-89.6839,201.0,America/Chicago,1973-01-01,2022-09-22,1943-05-04,2022-09-14,1943-01-01,2022-01-01,326.434921900874
72533,Fort Wayne International,US,IN,72533,KFWA,41.0,-85.0333,248.0,America/Indiana/Indianapolis,1941-11-01,2022-09-22,1939-08-01,2022-09-14,1939-01-01,2022-01-01,107.56989736819239
72534,Chicago Midway Airport,US,IL,72534,KMDW,41.7833,-87.75,189.0,America/Chicago,1973-01-01,2022-09-22,1928-02-29,2022-09-13,1928-01-01,2022-01-01,208.3421542269787
72535,South Bend Regional Airport,US,IN,72535,KSBN,41.7,-86.3167,244.0,America/Indiana/Indianapolis,1973-01-01,2022-09-22,1893-12-01,2022-09-14,1893-01-01,2022-01-01,137.26715696675956
72536,Toledo Express Airport,US,OH,72536,KTOL,41.5833,-83.8,208.0,America/New_York,1973-01-01,2022-09-22,1955-01-01,2022-09-14,1955-01-01,2022-01-01,44.23890161895907
72537,Detroit Metropolitan,US,MI,72537,KDTW,42.2333,-83.0,195.0,America/Detroit,1942-08-01,2022-09-22,1942-08-01,2022-09-14,1942-01-01,2022-01-01,38.25335748707118
72538,Copper Harbor,US,MI,72538,KP59,47.4667,-87.8833,191.0,America/Detroit,2006-01-01,2022-09-22,2004-11-11,2022-09-14,2004-01-01,2022-01-01,415.09236705614813
72539,Capital City Airport,US,MI,72539,KLAN,42.7833,-84.5833,262.0,America/Detroit,1973-01-01,2022-09-22,1948-01-01,2022-09-14,1948-01-01,2022-01-01,57.672451519479075
72540,Spickard,US,MI,72540,KP35,40.25,-93.7167,271.0,America/Chicago,,,1957-03-17,2022-09-14,1957-01-01,2022-01-01,536.6036330660049
72542,Burlington / Congers Mobile Home Park,US,IA,72542,KBRL,40.7832,-91.1255,213.0,America/Chicago,2005-01-01,2022-09-22,1897-07-14,2022-09-14,1897-01-01,2022-01-01,395.40473290533777
72543,Greater Rockford Airport,US,IL,72543,KRFD,42.2,-89.1,224.0,America/Chicago,1973-01-01,2022-09-22,1951-01-01,2022-09-14,1951-01-01,2022-01-01,274.6950343634056
72544,Moline Quad-City Airport,US,IL,72544,KMLI,41.45,-90.0167,180.0,America/Chicago,1973-01-01,2022-09-22,1943-05-24,2022-09-14,1943-01-01,2022-01-01,327.95609763301655
72545,Cedar Rapids / Konigsmark,US,IA,72545,KCID,41.8851,-91.7123,265.0,America/Chicago,1973-01-01,2022-09-22,1953-06-01,2022-09-14,1953-01-01,2022-01-01,410.300056120137
72546,Des Moines International,US,IA,72546,KDSM,41.5333,-93.6531,292.0,America/Chicago,1973-01-01,2022-09-22,1945-07-01,2022-09-14,1945-01-01,2022-01-01,512.9394078805907
72547,Dubuque Regional Airport,US,IL,72547,KDBQ,42.4,-90.0333,328.0,America/Chicago,1973-01-01,2022-09-22,1951-02-01,2022-09-14,1951-01-01,2022-01-01,322.2719736584899
72548,Waterloo Municipal Airport,US,IA,72548,KALO,42.55,-92.0667,266.0,America/Chicago,1960-03-01,2022-09-22,1950-03-01,2022-09-14,1950-01-01,2022-01-01,426.20293788621075
72549,Fort Dodge,US,IA,72549,KFOD,42.55,-94.1833,354.0,America/Chicago,2006-01-01,2022-09-22,2006-01-01,2022-04-25,2006-01-01,2022-01-01,534.2184160940607
72550,Omaha Eppley Airfield,US,NE,72550,KOMA,41.3,-95.9,300.0,America/Chicago,1975-01-01,2022-09-22,1948-01-01,2022-09-14,1948-01-01,2022-01-01,630.7309786807512
72551,Lincoln Municipal Airport,US,NE,72551,KLNK,40.8333,-96.7647,372.0,America/Chicago,1942-10-01,2022-09-22,1942-10-01,2022-09-14,1942-01-01,2022-01-01,681.254636479526
72552,Central Nebraska Regional,US,NE,72552,KGRI,40.9667,-98.15,563.0,America/Chicago,1944-03-01,2022-09-22,1938-03-21,2022-09-14,1938-01-01,2022-01-01,750.3458556598413
72553,"Omaha, Ne.",US,NE,72553,KOVN,41.3667,-96.0167,399.0,America/Chicago,,,1954-10-01,2003-02-28,1954-01-01,2002-01-01,635.9470289035528
72554,Omaha / Offutt Air Force Base,US,NE,72554,KOFF,41.1167,-95.9,319.0,America/Chicago,1948-01-12,2022-09-22,1948-01-13,2022-04-25,1948-01-01,2020-01-01,633.0113231458769
72556,Karl Stefan Memorial Airport,US,NE,72556,KOFK,41.9833,-97.4333,479.0,America/Chicago,1973-01-01,2022-09-22,1945-10-01,2022-09-14,1945-01-01,2022-01-01,702.9571322624654
72557,Sioux Gateway Airport,US,IA,72557,KSUX,42.3833,-96.05,335.0,America/Chicago,1942-10-01,2022-09-22,1942-10-01,2022-09-14,1942-01-01,2022-01-01,629.97473760112
72558,Valley,US,NE,72558,KOAX,41.3167,-96.3667,350.0,America/Chicago,2000-02-16,2005-04-20,,,,,654.4700173310382
72628,K. I. Sawyer Air Force Base,US,MI,72628,KSAW,46.34,-87.38,372.0,America/Detroit,2006-01-01,2022-09-22,2006-01-04,2022-04-25,2020-01-01,2022-01-01,336.51496523759056
72634,"Gaylord, Mi.",US,MI,72634,KAPX,44.9167,-84.7167,446.0,America/Detroit,1973-01-01,2001-05-02,1998-08-01,2022-09-14,1998-01-01,2022-01-01,192.24255959648073
72635,Gerald R. Ford International,US,MI,72635,KGRR,42.8833,-85.5167,242.0,America/Detroit,1973-01-01,2022-09-22,1963-11-24,2022-09-14,1963-01-01,2022-01-01,101.22222063720986
72636,Muskegon County Airport,US,MI,72636,KMKG,43.1667,-86.2333,191.0,America/Detroit,1973-01-01,2022-09-22,1896-06-02,2022-09-14,1896-01-01,2022-01-01,142.42623746621422
72637,Flint Bishop International  Airport,US,MI,72637,KFNT,42.9667,-83.0833,238.0,America/Detroit,1973-01-01,2022-09-22,1948-05-02,2022-09-14,1948-01-01,2022-01-01,61.44879123517779
72638,Roscommon County Airport,US,MI,72638,KHTL,44.35,-84.6667,351.0,America/Detroit,1973-01-01,2022-09-22,1964-07-01,2022-09-14,1964-01-01,2022-01-01,154.00339312121113
72639,Alpena County Regional Airport,US,MI,72639,KAPN,45.0833,-83.5667,210.0,America/Detroit,1973-01-01,2022-09-22,1916-10-21,2022-09-14,1916-01-01,2022-01-01,197.67203557959638
72640,Gen Mitchell International Airport,US,WI,72640,KMKE,42.955,-87.9044,211.0,America/Chicago,1948-01-01,2022-09-22,1938-04-01,2022-09-14,1938-01-01,2022-01-01,218.022785265965
72641,Madison Dane County Rgnl,US,WI,72641,KMSN,43.1333,-89.0167,263.0,America/Chicago,1948-01-01,2022-09-22,1939-10-01,2022-09-14,1939-01-01,2022-01-01,275.6647356352511
72642,Acacia Falls Mobile Home Court,US,WI,72642,KSBM,43.78,-87.85,228.0,America/Chicago,2006-01-01,2022-09-22,2006-01-01,2022-04-25,2006-01-01,2022-01-01,234.04752296240923
72643,La Crosse Municipal Airport,US,WI,72643,KLSE,43.8833,-91.25,199.0,America/Chicago,1948-01-01,2022-09-22,1938-04-01,2022-09-14,1938-01-01,2022-01-01,396.64374342053304
72644,Rochester International Airport,US,MN,72644,KRST,43.9,-92.5,401.0,America/Chicago,1973-01-01,2022-09-22,1893-01-18,2022-09-14,1893-01-01,2022-01-01,457.740306104585
72645,Austin Straubel International  Airport,US,WI,72645,KGRB,44.4833,-88.1333,212.0,America/Chicago,1950-01-01,2022-09-22,1886-09-01,2022-09-14,1886-01-01,2022-01-01,270.49903442984964
72646,Wausau / Wausau Junction,US,WI,72646,KAUW,44.9263,-89.627,366.0,America/Chicago,1990-03-14,2022-09-22,1941-12-01,2022-09-14,1941-01-01,2022-01-01,349.10945471940175
72648,Escanaba,US,MI,72648,KESC,45.75,-87.0333,180.0,America/Detroit,2006-01-01,2022-09-22,1948-01-01,2022-04-25,1948-01-01,2022-01-01,293.463962833756
72650,Spencer / Birchwood Estates,US,IA,72650,,43.1667,-95.15,408.0,America/Chicago,,,1895-02-01,2022-09-12,1895-01-01,2022-01-01,583.8604602454817
72651,Sioux Falls Foss Field,US,SD,72651,KFSD,43.5833,-96.75,436.0,America/Chicago,1942-10-01,2022-09-22,1932-01-01,2022-09-14,1932-01-01,2022-01-01,665.8706956301661
72652,"Pickstown, Sd.",US,SD,72652,,43.0667,-98.5333,453.0,America/Chicago,,,1948-01-01,2017-04-16,1948-01-01,2017-01-01,754.8150286368051
72653,Chamberlain Municipal Airport,US,SD,72653,K9V9,43.7667,-99.3167,517.0,America/Chicago,2006-01-01,2022-09-21,1998-02-01,2022-09-12,1998-01-01,2022-01-01,794.9649611091746
72654,Huron Regional Airport,US,SD,72654,KHON,44.3833,-98.2333,393.0,America/Chicago,1973-01-01,2022-09-22,1881-07-01,2022-09-14,1881-01-01,2022-01-01,744.4458336950447
72655,Saint Cloud / St Cloud / Cable,US,MN,72655,KSTC,45.5466,-94.0599,314.0,America/Chicago,1973-01-01,2022-09-22,1904-09-01,2022-09-14,1904-01-01,2022-01-01,563.2843800866341
72656,"Winner, Bob Wiley Field Airport",US,SD,72656,KSFD,43.3833,-99.8333,619.0,America/Chicago,,,1893-01-01,2022-09-14,1893-01-01,2022-01-01,820.3403435250815
72658,Minneapolis-St Paul International,US,MN,72658,KMSP,44.8667,-93.05,256.0,America/Chicago,1945-01-01,2022-09-22,1938-04-09,2022-09-14,1938-01-01,2022-01-01,501.2513469747858
72659,Aberdeen Regional Airport,US,SD,72659,KABR,45.45,-98.4167,397.0,America/Chicago,1973-01-01,2022-09-22,1893-01-01,2022-09-14,1893-01-01,2022-01-01,765.0109507697753
72734,Sault Ste. Marie Muni,US,MI,72734,KANJ,46.4833,-84.35,218.0,America/Detroit,1973-01-01,2022-09-22,1931-01-01,2022-09-14,1931-01-01,2022-01-01,295.6750192659254
72741,Park Falls,US,WI,72741,KPKF,45.9333,-90.45,462.0,America/Chicago,1973-01-01,2001-02-03,1910-05-01,2022-09-13,1910-01-01,2021-01-01,420.4335732623669
72743,Marquette,US,MI,72743,KMQT,46.5333,-87.55,434.0,America/Detroit,1973-01-01,2022-08-29,1857-09-01,2022-09-14,1857-01-01,2022-01-01,352.12739055511787
72744,Hancock Houghton Cty. Memo,US,MI,72744,KCMX,47.1667,-88.4833,334.0,America/Detroit,1973-01-01,2022-09-22,1948-01-01,2022-09-13,1948-01-01,2022-01-01,413.31619299675503
72745,Duluth International Airport,US,MN,72745,KDLH,46.8333,-92.2167,435.0,America/Chicago,1948-01-01,2022-09-22,1948-01-01,2022-09-14,1948-01-01,2022-01-01,525.2463304779079
72747,Falls International Airport,US,MN,72747,KINL,48.5667,-93.4,361.0,America/Chicago,1973-01-01,2022-09-22,1906-07-01,2022-09-14,1906-01-01,2022-01-01,641.3965405662731
72753,Hector International Airport,US,ND,72753,KFAR,46.9333,-96.8167,274.0,America/Chicago,1948-01-01,2022-09-22,1891-05-19,2022-09-14,1891-01-01,2022-01-01,721.176649692431
72755,Bemidji,US,MN,72755,KBJI,47.5,-94.9333,423.0,America/Chicago,2006-01-01,2022-09-22,1896-02-01,2022-09-09,1896-01-01,2022-01-01,658.2831366647191
74455,"Davenport, Ia.",US,IA,74455,KDVN,41.6167,-90.5833,229.0,America/Chicago,2005-01-01,2022-09-22,2005-01-01,2022-04-25,2006-01-01,2022-01-01,354.83049774770177
74467,Chestervale,US,IL,74467,KAAA,40.15,-89.33,178.0,America/Chicago,2006-06-22,2022-09-22,2008-04-27,2022-04-25,2014-01-01,2022-01-01,324.27994633841837
7FZD7,Brandon RCS,CA,MB,71136,,49.9,-99.95,409.0,America/Winnipeg,2020-01-01,2022-09-21,2012-01-09,2022-09-19,2012-01-01,2022-01-01,939.2543631110731
7Q717,Sarnia,CA,ON,71746,,43.0,-82.3,181.0,America/Toronto,2020-01-01,2022-09-20,2006-03-20,2022-09-18,2006-01-01,2022-01-01,91.15010471615625
7XHBS,Joliet Regional Airport,US,IL,,KJOT,41.5176,-88.179,177.0,America/Chicago,2022-04-23,2022-09-22,2022-04-23,2022-04-26,,,233.7937603344742
7ZTNB,Massey,CA,ON,,,46.19,-82.02,200.0,America/Toronto,,,2000-01-01,2022-09-13,2000-01-01,2022-01-01,286.9739179193301
8HNVP,Wiarton Airport,CA,ON,,,44.74,-81.11,222.0,America/Toronto,2020-01-01,2022-09-21,2018-10-29,2022-09-19,2018-01-01,2022-01-01,218.48443857011333
8ZB0I,Kleefeld (mafri),CA,MB,71646,,49.52,-96.9,246.0,America/Winnipeg,2020-01-01,2022-09-21,2014-09-17,2022-09-19,2014-01-01,2022-01-01,808.417487368648
93RHE,Wroxeter,CA,ON,,,43.86,-81.15,335.0,America/Toronto,,,2000-01-01,2021-06-15,2000-01-01,2020-01-01,173.30909304717574
9H92X,Fergus Moe,CA,ON,,,43.7,-80.38,396.0,America/Toronto,,,2000-01-01,2022-08-15,2000-01-01,2019-01-01,198.74775597274868
9M4XD,Sault Ste. Marie Airport,CA,ON,73070,,46.48,-84.52,187.0,America/Toronto,2020-01-01,2022-09-21,2019-02-09,2022-09-20,2019-01-01,2022-01-01,296.4186378630099
9NRIJ,Minneapolis / Blaine,US,MN,,KANE,45.1426,-93.2127,278.0,America/Chicago,2022-04-23,2022-09-22,2022-04-24,2022-04-26,,,514.9625826974988
9W5OW,Barwick,CA,ON,,,48.63,-93.97,335.0,America/Chicago,,,2000-01-01,2022-09-16,2000-01-01,2022-01-01,664.5202470605726
A4QYJ,Devils Lake Municipal Airport,US,ND,,KDVL,48.1167,-98.9167,443.0,America/Chicago,2022-04-23,2022-09-22,2022-04-23,2022-04-26,,,843.3689111138864
ATA0X,Roseville,CA,ON,,,43.35,-80.47,328.0,America/Toronto,,,2000-01-01,2022-09-17,2000-01-01,2022-01-01,183.79446938206337
C9NCB,Miami Thiessen,CA,MB,,,49.45,-98.25,297.0,America/Winnipeg,,,2000-01-01,2016-06-13,2000-01-01,2016-01-01,857.5170181329961
CACQ0,Chatham / Vista-Villa Mobilehome Community,CA,NB,,CACQ,44.0735,-93.5529,343.0,America/Chicago,2006-01-01,2022-09-10,2006-01-04,2022-03-05,2006-01-01,2021-01-01,511.5565936988675
CTGT0,Guelph / University of Guelph,CA,ON,,CTGT,43.55,-80.2167,325.0,America/Toronto,2007-02-28,2022-03-24,2007-04-20,2022-03-05,2008-01-01,2021-01-01,201.16605129326814
CWDD0,Belle River,CA,ON,,CWDD,42.3,-82.7,184.0,America/Toronto,2005-01-01,2005-03-07,2005-01-01,2005-03-06,,,53.87011311418829
CXQT0,Thunder Bay,CA,ON,,CXQT,48.4333,-89.2167,190.0,America/Thunder_Bay,2020-04-20,2022-05-18,2020-04-21,2021-05-12,,,504.626874156869
CYSP0,Marathon,CA,ON,,CYSP,48.7553,-86.3444,316.0,America/Nipigon,2007-10-25,2022-09-21,2020-01-14,2022-04-11,,,468.3726112171491
CYWR0,White River,CA,ON,,CYWR,48.6,-85.2833,379.0,America/Nipigon,1955-07-02,1963-07-31,,,,,446.66952407481506
D454J,Monetville 2,CA,ON,,,46.22,-80.3,205.0,America/Toronto,,,2015-02-28,2022-09-18,2015-01-01,2022-01-01,324.62129573329565
DCBG8,Winnipeg Charleswood 2,CA,MB,,,49.85,-97.27,238.0,America/Winnipeg,,,2004-10-27,2022-06-01,2004-01-01,2022-01-01,834.8858607589615
DMZ7Z,Dorchester,CA,ON,,,43.0,-81.03,271.0,America/Toronto,,,2000-01-01,2017-09-08,2000-01-01,2017-01-01,148.47121495671632
DNYFH,Windsor Airport,CA,ON,,,42.28,-82.96,190.0,America/Toronto,,,2014-10-02,2018-11-01,2014-01-01,2018-01-01,40.47539468591726
DRPUK,Terrace Bay Airport,CA,ON,73018,,48.82,-87.09,290.0,America/Nipigon,2020-01-01,2022-09-21,2018-01-08,2022-09-19,2018-01-01,2022-01-01,483.52912226241835
ERRXP,Sudbury,CA,ON,71733,,46.63,-80.8,348.0,America/Toronto,2020-01-01,2022-09-21,2011-08-12,2022-09-19,1999-01-01,2022-01-01,337.3305068646622
FO7ZN,Strathroy-mullifarry,CA,ON,,,42.98,-81.64,243.0,America/Toronto,,,2000-01-01,2022-09-12,2000-01-01,2022-01-01,119.40587107359138
FQQAW,Anderson Municipal Airport,US,IN,,KAID,40.1061,-85.6098,280.0,America/Indiana/Indianapolis,2022-04-23,2022-09-22,2022-04-24,2022-04-24,,,175.46257630157604
FT7VY,Timmins,CA,ON,71193,,48.56,-81.39,294.0,America/Toronto,2020-01-01,2022-09-21,2008-10-01,2022-09-18,2008-01-01,2022-01-01,452.32541288689254
GCHAU,Schanzenfeld,CA,MB,,,49.13,-97.95,277.0,America/Winnipeg,,,2000-01-01,2022-09-18,2000-01-01,2021-01-01,834.7605834671963
GUUD7,Kincardine,CA,ON,,,44.17,-81.62,200.0,America/Toronto,,,2000-01-01,2022-04-14,2000-01-01,2010-01-01,172.00346404175468
H1GXB,Orangeville Moe,CA,ON,,,43.92,-80.09,412.0,America/Toronto,,,2000-01-01,2015-12-31,2000-01-01,2015-01-01,218.9406554116403
HEZQT,Baldur,CA,MB,,,49.28,-99.29,450.0,America/Winnipeg,,,2000-01-01,2022-08-13,2000-01-01,2021-01-01,893.0866378070672
HIIF6,Wawa Airport,CA,ON,,,47.97,-84.79,288.0,America/Nipigon,2020-01-01,2022-09-21,2018-10-29,2022-09-19,2018-01-01,2022-01-01,400.1235887662229
I0EZ7,Cypress River RCS,CA,MB,71239,,49.56,-99.07,374.0,America/Winnipeg,2020-01-01,2022-09-21,2009-09-15,2022-09-18,2009-01-01,2022-01-01,893.3986822822357
IAKJ0,East Troy Municipal Airport,US,WI,,K57C,42.7972,-88.3726,262.0,America/Chicago,2022-05-06,2022-09-21,,,,,239.55955061050952
IU5MI,Bonner Lake,CA,ON,,,49.38,-82.12,245.0,America/Nipigon,,,2000-05-01,2022-09-15,2000-01-01,2022-01-01,500.45444681790957
J35KT,Balaclava,CA,ON,,,44.67,-80.78,222.0,America/Toronto,,,2006-05-01,2016-03-22,2006-01-01,2016-01-01,225.3281002365945
JJR7O,St. Mary's Hospital Heliport,US,MN,,K9MN,44.0206,-92.4829,355.0,America/Chicago,2022-05-06,2022-09-22,,,,,458.65841006532355
JXPVQ,Geraldton Airport,CA,ON,,,49.78,-86.99,348.0,America/Nipigon,2020-01-01,2022-09-21,2018-10-29,2022-09-01,2018-01-01,2021-01-01,544.6536038393725
JY95F,Hinckley Field Of Dreams Airport,US,MN,,K04W,46.0244,-92.8991,311.0,America/Chicago,2022-05-06,2022-09-21,,,,,525.001132673315
K06D0,Rolla,US,ND,,K06D,48.8844,-99.6208,556.0,America/Chicago,2010-11-18,2022-09-21,2010-11-19,2022-03-09,2017-01-01,2017-01-01,894.5527693378323
K2C80,Cavalier,US,ND,,K2C8,48.7837,-97.632,272.0,America/Chicago,2010-11-18,2022-09-22,2010-11-19,2022-03-09,2014-01-01,2019-01-01,810.4689649684917
K46D0,Carrington,US,ND,,K46D,47.4511,-99.1513,490.0,America/Chicago,2010-06-10,2022-09-21,2010-06-11,2022-03-09,2020-01-01,2020-01-01,836.6258367232922
K4I30,Mount Vernon-Knox Co / Brandon,US,OH,,K4I3,40.3289,-82.5261,363.0,America/New_York,2008-02-29,2022-09-21,2008-03-02,2022-03-09,2011-01-01,2021-01-01,145.30836811168066
K4R50,La Pointe,US,WI,,K4R5,46.7887,-90.7587,198.0,America/Chicago,2016-11-11,2022-09-21,2016-11-12,2022-03-08,,,468.13303391415184
K6CAG,Tillsonburg North,CA,ON,,,42.86,-80.74,235.0,America/Toronto,,,2000-01-01,2016-06-13,2000-01-01,2016-01-01,159.57875180781787
K7B4X,Markdale,CA,ON,,,44.27,-80.71,411.0,America/Toronto,,,2004-09-01,2022-09-10,2004-01-01,2021-01-01,208.38367575147518
K8D30,Sisseton,US,SD,,K8D3,45.6708,-96.9962,354.0,America/Chicago,2006-01-01,2022-09-21,2006-01-01,2022-03-09,2006-01-01,2021-01-01,701.5016612860878
K96D0,Walhalla,US,ND,,K96D,48.9406,-97.9028,291.0,America/Chicago,2010-11-18,2022-09-21,2010-11-19,2022-03-09,2016-01-01,2016-01-01,826.5113187701978
K9D70,Cando,US,ND,,K9D7,48.48,-99.2364,452.0,America/Chicago,2010-11-18,2022-09-22,2010-11-19,2021-10-18,2014-01-01,2016-01-01,866.9449144623665
KACB0,Bellaire,US,MI,,KACB,44.9886,-85.1984,190.0,America/Detroit,2006-01-01,2022-09-22,2006-01-01,2022-04-24,2008-01-01,2022-01-01,204.35697420467514
KACQ0,Waseca / Vista-Villa Mobilehome Community,US,MN,,KACQ,44.0735,-93.5529,344.0,America/Chicago,2006-01-01,2022-09-22,2006-01-01,2022-04-19,2006-01-01,2022-01-01,511.5565936988675
KADC0,Wadena / West Wind Estates,US,MN,,KADC,46.4503,-95.211,417.0,America/Chicago,2006-01-01,2022-09-22,2006-01-01,2022-04-24,2006-01-01,2022-01-01,637.899680601603
KADG0,Adrian / Maple Woods Manufactured Home Community,US,MI,,KADG,41.8677,-84.0773,243.0,America/Detroit,2006-01-01,2022-09-22,2006-01-01,2022-04-24,2006-01-01,2022-01-01,29.87506560478955
KADU0,Audubon / Nishna,US,IA,,KADU,41.7014,-94.9205,392.0,America/Chicago,2006-01-01,2022-09-22,2006-01-01,2022-04-24,2011-01-01,2022-01-01,576.3461076671047
KAEL0,Albert Lea / Bancroft,US,MN,,KAEL,43.6815,-93.3672,384.0,America/Chicago,2006-01-01,2022-09-22,2006-01-02,2022-04-24,2006-01-01,2022-01-01,497.84925323214895
KAFJ0,Washington / Lagonda,US,PA,,KAFJ,40.1365,-80.2902,361.0,America/New_York,2006-01-01,2022-09-22,2006-01-01,2022-04-24,2006-01-01,2022-01-01,230.5882747829089
KAFK0,Nebraska City / Paul,US,NE,,KAFK,40.6054,-95.8678,355.0,America/Chicago,2006-01-01,2022-09-22,2006-01-01,2022-04-24,2007-01-01,2022-01-01,638.9962188600691
KAHQ0,Wahoo,US,NE,,KAHQ,41.2406,-96.5946,373.0,America/Chicago,2011-05-17,2022-09-22,2011-05-18,2022-04-24,2014-01-01,2022-01-01,667.0593106062588
KAIG0,Antigo,US,WI,,KAIG,45.1542,-89.1107,464.0,America/Chicago,2006-01-01,2022-09-22,2006-01-01,2022-04-24,2006-01-01,2022-01-01,336.31777542562384
KAIO0,Atlantic,US,IA,,KAIO,41.4038,-95.0487,355.0,America/Chicago,2006-01-01,2022-09-22,2006-01-01,2022-04-24,2015-01-01,2022-01-01,585.8885535016162
KAIT0,Aitkin / Welshons Company Mobile Home Park,US,MN,,KAIT,46.5484,-93.6768,368.0,America/Chicago,2006-01-01,2022-09-22,2006-01-01,2022-04-24,2009-01-01,2022-01-01,574.6758016180204
KAKR0,Akron / Derby Downs,US,OH,,KAKR,41.0375,-81.4669,325.0,America/New_York,1999-08-31,2022-09-22,1999-09-02,2022-04-24,2005-01-01,2022-01-01,143.5690883905256
KAMN0,Alma / Eugene,US,MI,,KAMN,43.3221,-84.6879,230.0,America/Detroit,2006-01-01,2022-09-22,2006-01-01,2022-04-24,2006-01-01,2022-01-01,89.73237166685479
KAMW0,Ames / Old Orchard Mobile Home Park,US,IA,,KAMW,41.9921,-93.6218,291.0,America/Chicago,2006-01-01,2022-09-22,2006-01-01,2022-04-24,2006-01-01,2022-01-01,507.54648658377346
KANQ0,Angola / Flint,US,IN,,KANQ,41.6397,-85.0835,303.0,America/Indiana/Indianapolis,2020-01-14,2022-09-22,2020-01-14,2022-04-24,2020-01-01,2022-01-01,79.84114013411553
KANW0,Ainsworth / Sandridge,US,NE,,KANW,42.5792,-99.993,789.0,America/Chicago,2006-01-01,2022-09-22,2006-01-01,2022-04-24,2007-01-01,2022-01-01,830.2484826212379
KAOH0,Lima / Eastwood Estates,US,OH,,KAOH,40.7075,-84.0271,297.0,America/New_York,2006-01-01,2022-09-22,2006-01-01,2022-04-24,2006-01-01,2022-01-01,105.60231351983381
KAQP0,Appleton,US,MN,,KAQP,45.2275,-96.0043,311.0,America/Chicago,2006-01-01,2022-09-22,2006-01-01,2022-04-24,2007-01-01,2022-01-01,647.0815922563789
KARB0,Ann Arbor / Pittsfield,US,MI,,KARB,42.223,-83.7456,256.0,America/Detroit,2006-01-01,2022-09-22,2006-01-01,2022-04-24,2006-01-01,2022-01-01,0.0
KARR0,Aurora / Sugar Grove,US,IL,,KARR,41.7719,-88.4757,217.0,America/Chicago,2006-01-01,2022-09-22,2006-01-01,2022-04-24,2006-01-01,2022-01-01,245.4696517264121
KARV0,Minocqua / Woodruff,US,WI,,KARV,45.9279,-89.7309,497.0,America/Chicago,2006-01-01,2022-09-22,2006-01-01,2022-04-24,2009-01-01,2022-01-01,392.4650806467471
KARX0,La Crosse / Cold Springs,US,WI,,KARX,43.8228,-91.1911,389.0,America/Chicago,1942-01-01,1980-03-14,1942-01-03,1980-01-31,1942-01-01,1953-01-01,392.77913607862195
KASW0,Warsaw / Monoquet,US,IN,,KASW,41.2747,-85.8401,259.0,America/Indiana/Indianapolis,2006-10-28,2022-09-22,2009-09-05,2022-04-24,2013-01-01,2022-01-01,126.49053252893195
KASX0,Ashland / Ashland Junction,US,WI,,KASX,46.5485,-90.919,252.0,America/Chicago,2006-01-01,2022-09-22,2006-01-01,2022-04-24,2006-01-01,2022-01-01,463.723704707905
KATW0,Appleton / Greenville,US,WI,,KATW,44.2581,-88.5191,280.0,America/Chicago,2006-01-01,2022-09-22,2020-01-14,2022-04-24,2020-01-01,2022-01-01,278.8164876192577
KATY0,Watertown,US,SD,,KATY,44.914,-97.1547,533.0,America/Chicago,1948-01-01,2022-09-22,1948-01-24,2022-04-24,1948-01-01,2022-01-01,697.3441811506647
KAUH0,Aurora,US,NE,,KAUH,40.8941,-97.9946,550.0,America/Chicago,2006-01-01,2022-09-22,2006-01-01,2022-04-24,2007-01-01,2022-01-01,743.3848111976686
KAUM0,Austin,US,MN,,KAUM,43.6626,-92.9329,376.0,America/Chicago,2006-01-01,2022-09-22,2006-01-01,2022-04-24,2007-01-01,2022-01-01,476.1359307612848
KAWG0,Washington,US,IA,,KAWG,41.275,-91.6752,230.0,America/Chicago,2006-01-01,2022-09-22,2006-01-01,2022-04-24,2014-01-01,2022-01-01,414.8552043980395
KAXA0,Algona / Hobarton,US,IA,,KAXA,43.0779,-94.272,371.0,America/Chicago,2006-01-01,2022-09-22,2006-01-01,2022-04-24,2011-01-01,2022-01-01,539.2306932927802
KAXN0,Alexandria / Mobile Park Estates,US,MN,,KAXN,45.8663,-95.3947,434.0,America/Chicago,1973-01-01,2022-09-22,1973-01-01,2022-04-24,1999-01-01,2022-01-01,631.5307809340158
KAXV0,Wapakoneta / New Knoxville,US,OH,,KAXV,40.4936,-84.2981,278.0,America/New_York,2020-01-14,2022-09-22,2020-01-14,2022-04-24,2020-01-01,2022-01-01,122.75378715833484
KAZO0,Kalamazoo / Colonial Acres Mobile Home Park,US,MI,,KAZO,42.2344,-85.5516,266.0,America/Detroit,2006-01-01,2022-09-22,2006-01-01,2022-04-24,2006-01-01,2022-01-01,92.6427742562016
KBAC0,Valley City / North Valley City,US,ND,,KBAC,46.9412,-98.018,427.0,America/Chicago,2010-12-15,2022-09-22,2010-12-16,2022-04-24,2014-01-01,2022-01-01,774.4870282054259
KBAX0,Bad Axe,US,MI,,KBAX,43.7802,-82.9854,233.0,America/Detroit,2006-01-01,2022-09-22,2006-01-01,2022-04-24,2008-01-01,2022-01-01,114.18390299253468
KBBB0,Benson,US,MN,,KBBB,45.3319,-95.6506,317.0,America/Chicago,2006-01-01,2022-09-22,2006-01-01,2022-04-24,2006-01-01,2022-01-01,632.288449124364
KBBW0,Broken Bow,US,NE,,KBBW,41.4365,-99.6422,776.0,America/Chicago,2006-01-01,2022-09-22,2006-01-02,2022-04-24,2006-01-01,2022-01-01,821.1507995647422
KBCK0,Black River Falls / Charter Oak Mills (Historical),US,WI,,KBCK,44.2507,-90.8553,255.0,America/Chicago,2010-11-18,2022-09-22,2010-11-19,2022-04-24,2011-01-01,2022-01-01,385.01235411532315
KBDE0,Baudette,US,MN,,KBDE,48.7284,-94.6122,331.0,America/Chicago,1983-11-04,2022-09-22,1995-02-11,2022-04-24,1998-01-01,2022-01-01,692.045921904989
KBDH0,Willmar / Parkwood Estates,US,MN,,KBDH,45.117,-95.1293,343.0,America/Chicago,2007-07-24,2022-09-22,2007-07-25,2022-04-24,2009-01-01,2022-01-01,603.8119273973081
KBEH0,Benton Harbor Airport / Benton Heights,US,MI,,KBEH,42.1286,-86.4285,198.0,America/Detroit,2006-01-01,2022-09-22,2006-01-01,2022-04-24,2006-01-01,2022-01-01,137.88605736828004
KBFW0,Silver Bay / Beaver Crossing,US,MN,,KBFW,47.249,-91.4156,332.0,America/Chicago,2006-01-01,2021-07-09,2006-01-01,2021-07-09,2006-01-01,2021-01-01,512.3303348671295
KBIE0,Beatrice / Hoyle North 77 Mobile Homes,US,NE,,KBIE,40.3013,-96.7541,403.0,America/Chicago,2006-01-01,2022-09-22,2006-01-02,2022-04-24,2008-01-01,2022-01-01,689.5054408474502
KBIV0,Holland / Lincoln Estates Mobile Home Park,US,MI,,KBIV,42.7428,-86.1078,213.0,America/Detroit,2006-01-01,2022-09-22,2006-01-01,2022-04-24,2006-01-01,2022-01-01,125.89995374860082
KBJJ0,Wooster / Smithville,US,OH,,KBJJ,40.8748,-81.8882,346.0,America/New_York,2006-01-01,2022-09-22,2006-01-01,2022-04-24,2006-01-01,2022-01-01,133.89358824636759
KBKL0,Brookville / Old Chinatown,US,PA,,KBKL,41.5175,-81.6833,178.0,America/New_York,2006-01-01,2022-09-22,2006-01-01,2022-04-24,2006-01-01,2022-01-01,116.99360667655971
KBKX0,Brookings,US,SD,,KBKX,44.3048,-96.8169,502.0,America/Chicago,2006-01-01,2022-09-22,2006-01-01,2022-04-24,2006-01-01,2022-01-01,674.1350287399814
KBMI0,Bloomington/Normal Airport / Colonial Meadows,US,IL,,KBMI,40.4771,-88.9159,266.0,America/Chicago,2006-01-01,2022-09-22,2006-01-01,2022-04-24,2006-01-01,2022-01-01,294.55775786982827
KBNW0,Boone,US,IA,,KBNW,42.0496,-93.8476,354.0,America/Chicago,2006-01-01,2022-09-22,2006-01-01,2022-04-24,2011-01-01,2022-01-01,518.7849004382413
KBRD0,Brainerd / Lazy Acre's Trailer Court,US,MN,,KBRD,46.4017,-94.1356,376.0,America/Chicago,2006-01-01,2022-09-22,2006-01-01,2022-04-24,2006-01-01,2022-01-01,589.7059514219417
KBTA0,Blair / Bennington,US,NE,,KBTA,41.4148,-96.109,402.0,America/Chicago,2008-01-07,2022-09-22,2008-01-08,2022-04-24,2009-01-01,2022-01-01,640.1474815316034
KBTL0,Battle Creek / Avenue A Mobile Home Estates,US,MI,,KBTL,42.3073,-85.2515,290.0,America/Detroit,1942-10-01,2022-09-22,1942-11-02,2022-04-24,1942-01-01,2022-01-01,77.42060264704128
KBUB0,Burwell / Rainbow Trailer Court,US,NE,,KBUB,41.7767,-99.1497,665.0,America/Chicago,1981-01-21,1981-04-29,,,,,792.5402101640943
KBUU0,Burlington,US,WI,,KBUU,42.6907,-88.3046,238.0,America/Chicago,2006-01-01,2022-09-22,2006-01-01,2022-04-24,2006-01-01,2022-01-01,235.21153110323309
KBVI0,Beaver Falls / West Mayfield,US,PA,,KBVI,40.7725,-80.3914,382.0,America/New_York,2006-01-02,2022-09-22,2019-07-24,2022-04-24,2020-01-01,2022-01-01,200.74156562939476
KBVN0,Albion / Loretto,US,NE,,KBVN,41.7286,-98.0558,551.0,America/Chicago,2006-01-01,2022-09-22,2006-01-04,2022-04-24,2008-01-01,2022-01-01,736.9066169552491
KBWP0,Wahpeton / Boise De Sioux Mobile Estates,US,ND,,KBWP,46.2443,-96.6072,295.0,America/Chicago,2006-01-01,2022-09-22,2006-01-06,2022-04-24,2006-01-01,2022-01-01,695.1681651076915
KC290,Middleton,US,WI,,KC29,43.1143,-89.5315,283.0,America/Chicago,2020-01-14,2022-09-22,2020-01-14,2022-04-24,2020-01-01,2022-01-01,301.01188389423
KC350,Reedsburg / Maple Aire Mobile Village,US,WI,,KC35,43.5259,-89.9832,276.0,America/Chicago,2020-01-14,2022-09-22,2020-01-14,2022-04-24,2020-01-01,2022-01-01,329.1144640431073
KC620,Kendallville / Wakeville Village,US,IN,,KC62,41.4727,-85.2608,306.0,America/Indiana/Indianapolis,2020-01-14,2022-09-22,2020-01-14,2022-04-24,2020-01-01,2022-01-01,93.77957621076239
KC650,Plymouth,US,IN,,KC65,41.3651,-86.3005,244.0,America/Indiana/Indianapolis,2020-01-14,2022-09-22,2020-01-14,2022-04-24,2020-01-01,2022-01-01,144.61888194876778
KCAD0,Cadillac / Cadillac Leisure Mobile Home Community,US,MI,,KCAD,44.2753,-85.4189,398.0,America/Detroit,1990-07-24,2022-09-22,1993-12-02,2022-04-24,2005-01-01,2022-01-01,164.9208355165477
KCAV0,Clarion,US,IA,,KCAV,42.7419,-93.7589,353.0,America/Chicago,2006-01-01,2022-09-22,2006-01-01,2022-04-24,2014-01-01,2022-01-01,512.532707892545
KCBF0,Council Bluffs / Gilliatt,US,IA,,KCBF,41.2601,-95.7587,380.0,America/Chicago,2006-01-01,2022-09-22,2006-01-01,2022-04-24,2011-01-01,2022-01-01,623.9623382601698
KCBG0,Cambridge / Pine Village Mobile Home Park,US,MN,,KCBG,45.5575,-93.2642,288.0,America/Chicago,2006-01-01,2022-09-22,2006-01-01,2022-04-20,2007-01-01,2022-01-01,527.6174847316393
KCCY0,Charles City / Doubleday,US,IA,,KCCY,43.0726,-92.6108,343.0,America/Chicago,2006-01-01,2022-09-22,2006-01-01,2022-04-24,2014-01-01,2022-01-01,455.30268568254263
KCDD0,Crane Lake,US,MN,,KCDD,48.2666,-92.4835,341.0,America/Chicago,2006-01-01,2022-09-22,2006-02-23,2022-04-24,2010-01-01,2021-01-01,595.8425429160773
KCFE0,Buffalo / Buffalo Manor East,US,MN,,KCFE,45.1592,-93.8433,295.0,America/Chicago,2005-01-01,2022-09-22,2005-01-01,2022-04-24,2007-01-01,2022-01-01,544.4726357733996
KCFS0,Caro / Wahjamega,US,MI,,KCFS,43.45,-83.45,214.0,America/Detroit,2005-02-01,2022-09-22,2005-02-04,2022-04-24,2011-01-01,2022-01-01,86.01794146441704
KCGF0,Cleveland / White Hill,US,OH,,KCGF,41.5651,-81.4864,268.0,America/New_York,2006-01-08,2022-09-22,2020-01-14,2022-04-24,2020-01-01,2022-01-01,125.0294774722786
KCGX0,Chicago / Central Station,US,IL,,KCGX,41.8667,-87.6,181.0,America/Chicago,1973-01-01,1999-12-31,1994-06-17,1994-06-29,,,199.79056805302798
KCIU0,Sault Ste Marie / Kinross,US,MI,,KCIU,46.2507,-84.4724,244.0,America/Detroit,2006-01-01,2022-09-22,2006-01-02,2022-04-24,2008-01-01,2021-01-01,280.41863882234304
KCKC0,Grand Marais / Pine Mountain Trailer Court,US,MN,,KCKC,47.8383,-90.3829,548.0,America/Chicago,2006-01-01,2022-09-22,2006-01-01,2022-04-24,2006-01-01,2022-01-01,505.5601840605274
KCKN0,Crookston / Shirley,US,MN,,KCKN,47.8417,-96.6215,274.0,America/Chicago,2006-01-01,2022-09-22,2006-01-01,2022-04-24,2007-01-01,2022-01-01,738.8663286112119
KCKP0,Cherokee / Onawa Junction,US,IA,,KCKP,42.7312,-95.5561,374.0,America/Chicago,2006-01-01,2022-09-22,2006-01-04,2022-04-24,2014-01-01,2022-01-01,603.9786201214464
KCLI0,Clintonville,US,WI,,KCLI,44.6133,-88.7307,251.0,America/Chicago,2006-01-01,2022-09-22,2006-01-01,2022-04-01,2007-01-01,2022-01-01,300.18114590125623
KCMI0,Champaign / Savoy,US,IL,,KCMI,40.0388,-88.2778,230.0,America/Chicago,2006-01-01,2022-09-22,2006-01-01,2022-04-24,2006-01-01,2022-01-01,280.3596444657392
KCMY0,Sparta / Angelo,US,WI,,KCMY,43.9583,-90.7379,255.0,America/Chicago,2006-01-01,2022-09-22,2006-01-01,2022-04-24,2006-01-01,2021-01-01,373.3466206796588
KCNB0,Canby,US,MN,,KCNB,44.7295,-96.266,364.0,America/Chicago,2006-10-18,2022-09-22,2006-10-20,2022-04-24,2009-01-01,2022-01-01,652.0509846449283
KCNC0,Chariton / Whitebreast,US,IA,,KCNC,41.0196,-93.3597,320.0,America/Chicago,2006-01-01,2022-09-22,2006-01-01,2022-04-24,2014-01-01,2022-01-01,504.4623494481516
KCOQ0,Cloquet,US,MN,,KCOQ,46.7011,-92.5036,390.0,America/Chicago,2006-01-01,2022-09-22,2006-01-01,2022-04-24,2007-01-01,2022-01-01,531.6117509001534
KCQM0,Cook,US,MN,,KCQM,47.8218,-92.6906,405.0,America/Chicago,2006-01-01,2022-09-22,2006-01-01,2022-04-24,2006-01-01,2022-01-01,583.5889965630477
KCSQ0,Creston / Country Court Mobile Home Park,US,IA,,KCSQ,41.0214,-94.3633,396.0,America/Chicago,2006-01-01,2022-09-22,2006-01-01,2022-04-24,2011-01-01,2022-01-01,555.6728280043633
KCVX0,Charlevoix / Boulder Park,US,MI,,KCVX,45.3048,-85.2753,204.0,America/Detroit,2006-01-01,2022-09-22,2006-01-01,2022-04-24,2006-01-01,2022-01-01,226.10060545328088
KCWA0,Mosinee,US,WI,,KCWA,44.7776,-89.6668,389.0,America/Chicago,2006-01-01,2022-09-22,2009-10-05,2022-04-24,2020-01-01,2022-01-01,345.76838681608757
KCWI0,Clinton / Elvira,US,IA,,KCWI,41.8311,-90.3291,216.0,America/Chicago,2006-01-01,2022-09-22,2006-01-01,2022-04-24,2008-01-01,2022-01-01,339.77454146275517
KD250,Manitowish Waters,US,WI,,KD25,46.122,-89.8823,491.0,America/Chicago,2011-12-15,2022-09-22,2011-12-16,2022-04-24,2012-01-01,2022-01-01,406.552629496978
KD390,Sauk Centre,US,MN,,KD39,45.7066,-94.9334,379.0,America/Chicago,2020-01-14,2022-09-19,2020-01-14,2022-04-24,2020-01-01,2022-01-01,606.8469879458302
KD550,Langdon,US,ND,,KD55,48.7531,-98.3937,490.0,America/Chicago,2020-01-14,2022-09-22,2020-01-14,2022-04-24,2020-01-01,2022-01-01,840.2382606558633
KD950,Lapeer / Lapeer Meadows Mobile Home Park,US,MI,,KD95,43.0664,-83.2718,255.0,America/Detroit,2013-01-01,2022-09-22,2013-01-01,2022-04-24,2013-01-01,2022-01-01,63.023889544731524
KDEH0,Decorah / Freeport,US,IA,,KDEH,43.2755,-91.7394,353.0,America/Chicago,2006-01-01,2022-09-22,2006-01-01,2022-04-24,2014-01-01,2022-01-01,412.9353079247841
KDET0,Detroit / Hamtramck,US,MI,,KDET,42.4092,-83.0099,191.0,America/Detroit,1973-01-01,2022-09-22,1973-01-01,2022-04-24,1981-01-01,2022-01-01,39.817534408803226
KDFI0,Defiance / Brunersburg,US,OH,,KDFI,41.3375,-84.4288,216.0,America/New_York,2006-01-01,2022-09-22,2006-01-01,2022-04-19,2006-01-01,2021-01-01,70.57095913572009
KDKB0,De Kalb / Cortland,US,IL,,KDKB,41.9338,-88.7057,279.0,America/Chicago,2006-01-02,2022-09-22,2008-03-04,2022-04-24,2014-01-01,2022-01-01,255.78089289475705
KDLL0,Baraboo / West Baraboo,US,WI,,KDLL,43.522,-89.7709,298.0,America/Chicago,2006-01-01,2022-09-22,2006-01-01,2022-04-24,2008-01-01,2022-01-01,318.70099041072837
KDLZ0,Delaware / Sunnyview Farms,US,OH,,KDLZ,40.2797,-83.1148,288.0,America/New_York,2011-03-15,2022-09-22,2011-03-16,2022-04-24,2011-01-01,2022-01-01,138.06873085833337
KDNS0,Denison / Kimze,US,IA,,KDNS,41.9866,-95.3805,388.0,America/Chicago,2006-01-01,2022-09-22,2006-01-01,2022-04-24,2014-01-01,2022-01-01,597.7517609491673
KDNV0,Danville / Campbell,US,IL,,KDNV,40.1997,-87.5955,212.0,America/Chicago,2006-01-03,2022-09-22,2007-12-05,2022-04-24,2015-01-01,2022-01-01,244.38716507675582
KDPA0,Chicago / Surrey Woods,US,IL,,KDPA,41.9069,-88.2482,231.0,America/Chicago,2006-01-01,2022-09-22,2006-01-01,2022-04-24,2006-01-01,2021-01-01,232.56064893748322
KDRM0,Drummond Island,US,MI,,KDRM,46.0093,-83.7439,204.0,America/Detroit,2006-08-31,2022-09-22,2006-10-04,2022-04-24,2008-01-01,2021-01-01,261.41890842772466
KDTL0,Detroit Lakes / Richards,US,MN,,KDTL,46.8252,-95.8856,426.0,America/Chicago,2006-01-01,2022-09-22,2006-01-01,2022-04-24,2006-01-01,2022-01-01,677.6267159683405
KDUH0,Lambertville / Elden Heights,US,MI,,KDUH,41.7359,-83.6558,204.0,America/Detroit,2006-01-01,2022-09-22,2006-01-01,2022-04-24,2006-01-01,2022-01-01,33.93499084188118
KDVP0,Davenport / Slayton,US,IA,,KDVP,43.9868,-95.7826,495.0,America/Chicago,2005-08-11,2022-09-13,2005-08-12,2022-04-24,2006-01-01,2022-01-01,620.2983926899153
KDXX0,Madison,US,MN,,KDXX,44.9864,-96.1778,330.0,America/Chicago,2006-01-01,2022-09-22,2006-01-01,2022-04-24,2007-01-01,2022-01-01,651.4446800557663
KDYT0,Duluth / East End,US,MN,,KDYT,46.7219,-92.0434,186.0,America/Chicago,2006-01-01,2022-09-22,2006-01-01,2022-04-24,2010-01-01,2022-01-01,514.1192791625716
KEAR0,Kearney / Buda,US,NE,,KEAR,40.727,-99.0068,650.0,America/Chicago,2006-01-01,2022-09-22,2006-01-01,2022-04-24,2006-01-01,2021-01-01,797.6907193721015
KEAU0,Eau Claire County / Pinehurst,US,WI,,KEAU,44.8658,-91.4843,278.0,America/Chicago,1973-01-01,2022-09-22,1973-01-01,2022-04-24,1973-01-01,2022-01-01,429.0733425447458
KEBS0,Webster City / Highview,US,IA,,KEBS,42.4365,-93.8691,342.0,America/Chicago,2006-01-01,2022-09-22,2006-01-01,2022-04-24,2010-01-01,2022-01-01,518.3714792699566
KEDJ0,Bellefontaine / McMorran,US,OH,,KEDJ,40.3723,-83.8192,342.0,America/New_York,2011-05-12,2022-09-21,2011-05-13,2022-04-24,2012-01-01,2021-01-01,127.77289409938884
KEFT0,Monroe / Swisshaven Mobile Home Park,US,WI,,KEFT,42.6149,-89.5904,331.0,America/Chicago,2006-01-01,2022-09-22,2006-01-01,2022-04-24,2006-01-01,2022-01-01,300.07546674158533
KEGV0,Eagle River,US,WI,,KEGV,45.9323,-89.2683,501.0,America/Chicago,2006-01-01,2022-09-22,2006-01-01,2022-04-24,2006-01-01,2022-01-01,375.5230633520147
KEKM0,Elkhart / Simonton Lake,US,IN,,KEKM,41.7194,-86.0017,237.0,America/Indiana/Indianapolis,2006-01-02,2022-09-22,,,,,121.28126722342222
KELO0,Ely Municipal Airport / Northern Terrace Mobile Home Park,US,MN,,KELO,47.8246,-91.8307,444.0,America/Chicago,2006-01-01,2022-09-22,2006-01-01,2022-04-24,2006-01-01,2021-01-01,552.9658142114012
KENW0,Kenosha / Pleasant Prairie Mobile Home Court,US,WI,,KENW,42.5957,-87.9278,226.0,America/Chicago,2006-01-01,2022-09-22,2006-01-01,2022-04-24,2006-01-01,2022-01-01,215.43718747693825
KEOK0,Keokuk / Skyview Mobile Home Park,US,IA,,KEOK,40.4599,-91.4285,205.0,America/Chicago,2006-01-01,2022-09-22,2006-01-01,2022-04-24,2016-01-01,2022-01-01,417.51441541041356
KEST0,Estherville / Gruver,US,IA,,KEST,43.4074,-94.7464,402.0,America/Chicago,2006-01-01,2022-09-22,2006-01-01,2022-04-24,2006-01-01,2022-01-01,564.5653526038196
KETB0,West Bend / Myra,US,WI,,KETB,43.4222,-88.1279,270.0,America/Chicago,2006-01-02,2022-09-22,2006-07-02,2022-04-24,2014-01-01,2022-01-01,237.5277194665767
KETH0,Wheaton,US,MN,,KETH,45.7805,-96.5439,312.0,America/Chicago,2006-01-01,2022-09-22,2006-01-01,2022-04-24,2006-01-01,2022-01-01,682.5158098146619
KEVM0,Eveleth / Genoa,US,MN,,KEVM,47.4251,-92.4981,420.0,America/Chicago,2006-01-01,2022-09-22,2006-01-01,2022-04-24,2009-01-01,2022-01-01,559.7835705190456
KEVU0,Maryville,US,MO,,KEVU,40.3533,-94.9166,349.0,America/Chicago,2017-01-05,2022-09-22,2017-01-09,2022-04-24,2020-01-01,2022-01-01,595.127561709604
KEZS0,Shawano,US,WI,,KEZS,44.7873,-88.56,248.0,America/Chicago,2009-02-01,2022-09-22,2009-03-12,2022-04-24,2012-01-01,2022-01-01,299.6899843814555
KFBL0,Faribault,US,MN,,KFBL,44.3275,-93.3107,323.0,America/Chicago,2006-01-01,2022-09-22,2006-01-01,2022-04-24,2007-01-01,2022-01-01,503.5191324861291
KFCM0,Minneapolis / Eden Prairie,US,MN,,KFCM,44.8275,-93.4586,276.0,America/Chicago,2006-01-01,2022-09-22,2006-01-02,2022-04-24,2006-01-01,2022-01-01,519.587111338442
KFDY0,Findlay / West Park,US,OH,,KFDY,41.012,-83.6686,248.0,America/New_York,1973-01-01,2022-09-22,1973-01-01,2022-04-24,2000-01-01,2022-01-01,83.66996925652992
KFEP0,Freeport / South Freeport,US,IL,,KFEP,42.2462,-89.582,262.0,America/Chicago,2006-01-02,2022-09-22,2006-06-01,2022-04-24,2015-01-01,2022-01-01,299.30376970586
KFET0,Fremont / Midway Trailer Court,US,NE,,KFET,41.4491,-96.5202,367.0,America/Chicago,2006-01-01,2022-09-22,2006-01-02,2022-04-24,2010-01-01,2022-01-01,660.8712686729051
KFFL0,Fairfield / Maharishi Vedic City,US,IA,,KFFL,41.0558,-91.9809,244.0,America/Chicago,2006-01-01,2022-09-22,2006-01-01,2022-04-24,2015-01-01,2022-01-01,433.70633751282895
KFFM0,Fergus Falls / French,US,MN,,KFFM,46.2844,-96.1567,361.0,America/Chicago,2005-01-01,2022-09-22,2005-01-01,2022-04-24,2008-01-01,2022-01-01,675.7460382050464
KFFX0,Fremont Muni / Reeman,US,MI,,KFFX,43.4393,-85.9949,235.0,America/Detroit,2008-02-29,2022-09-22,2008-03-02,2022-04-24,2008-01-01,2022-01-01,141.79492801947455
KFGN0,Flag Island / Penasse,US,MN,,KFGN,49.3183,-94.9028,329.0,America/Winnipeg,2006-01-01,2022-06-06,2006-01-01,2022-04-24,2011-01-01,2022-01-01,727.2488246123787
KFKA0,Preston / Carimona,US,MN,,KFKA,43.6767,-92.1797,389.0,America/Chicago,2006-01-01,2022-09-22,2006-01-01,2022-04-24,2007-01-01,2022-01-01,439.0794342668338
KFKR0,Frankfort / Jefferson,US,IN,,KFKR,40.2734,-86.5622,262.0,America/Indiana/Indianapolis,2020-01-14,2022-09-22,2020-01-14,2022-04-24,2020-01-01,2022-01-01,199.0269478947299
KFLD0,Fond Du Lac / Fond Du Lac,US,WI,,KFLD,43.7712,-88.4884,246.0,America/Chicago,1999-01-01,2022-09-22,1999-01-01,2022-04-24,2005-01-01,2022-01-01,262.95479142269835
KFNB0,Falls City,US,NE,,KFNB,40.0788,-95.592,300.0,America/Chicago,2000-01-01,2022-09-22,2000-08-31,2022-04-24,2001-01-01,2021-01-01,634.7945544493324
KFOZ0,Bigfork,US,MN,,KFOZ,47.7828,-93.6502,412.0,America/Chicago,2006-01-01,2022-09-22,2006-01-01,2022-04-24,2007-01-01,2022-01-01,617.9134798720664
KFPK0,Charlotte / Meadows Mobile Home Park,US,MI,,KFPK,42.5745,-84.8114,272.0,America/Detroit,2006-01-01,2022-09-22,2006-01-01,2022-04-24,2006-01-01,2022-01-01,59.678156335490975
KFRM0,Fairmont / Fairmont Estates,US,MN,,KFRM,43.6439,-94.4156,354.0,America/Chicago,2006-01-01,2022-09-22,2006-01-01,2022-04-24,2006-01-01,2022-01-01,549.611531330904
KFSE0,Fosston,US,MN,,KFSE,47.5928,-95.7735,390.0,America/Chicago,2006-01-01,2022-09-14,2006-01-01,2022-04-24,2007-01-01,2022-01-01,695.8496260292759
KFSW0,Fort Madison / Summit (Historical),US,IA,,KFSW,40.6593,-91.3268,220.0,America/Chicago,2006-01-03,2022-09-22,2006-01-05,2022-04-24,2014-01-01,2021-01-01,408.0457676874495
KFXY0,Forest City,US,IA,,KFXY,43.2348,-93.6241,375.0,America/Chicago,2009-07-14,2022-09-22,2009-07-16,2022-04-24,2015-01-01,2022-01-01,507.2317124980732
KGAF0,Grafton,US,ND,,KGAF,48.4047,-97.3709,251.0,America/Chicago,2010-11-18,2022-09-22,2010-11-19,2022-04-24,2014-01-01,2022-01-01,787.526654164136
KGDB0,Granite Falls / Lorne,US,MN,,KGDB,44.7533,-95.556,319.0,America/Chicago,2006-01-01,2022-09-22,2006-01-04,2022-04-24,2006-01-01,2022-01-01,618.1578322651296
KGFK0,Grand Forks / Powell,US,ND,,KGFK,47.9473,-97.1738,257.0,America/Chicago,2010-08-01,2022-09-22,2010-08-01,2022-04-24,2010-01-01,2022-01-01,765.0853293979702
KGGI0,Grinnel / Westfield,US,IA,,KGGI,41.7099,-92.736,307.0,America/Chicago,2006-08-31,2022-09-22,2006-09-03,2022-04-24,2011-01-01,2022-01-01,464.2132226404414
KGGP0,Logansport,US,IN,,KGGP,40.7113,-86.3727,225.0,America/Indiana/Indianapolis,2011-10-28,2022-09-22,2011-10-29,2022-04-24,2012-01-01,2022-01-01,171.68247362934994
KGHW0,Glenwood / Pine Hill Park,US,MN,,KGHW,45.6439,-95.3204,425.0,America/Chicago,2006-01-01,2022-09-22,2006-01-01,2022-04-15,2006-01-01,2022-01-01,623.19698810089
KGKJ0,Meadville / Onspaugh Corners,US,PA,,KGKJ,41.6265,-80.2147,426.0,America/New_York,2006-01-01,2022-09-22,2006-01-01,2022-04-24,2006-01-01,2022-01-01,186.5716260086677
KGLR0,Gaylord / Nottingham Forest Mobile Home Park,US,MI,,KGLR,45.0136,-84.7036,405.0,America/Detroit,2006-01-01,2022-09-22,2006-01-01,2022-04-24,2006-01-01,2022-01-01,198.55277627689645
KGNA0,Grand Marais,US,MN,,KGNA,47.7472,-90.3444,186.0,America/Chicago,2006-01-01,2022-09-22,2006-01-01,2022-04-24,2006-01-01,2021-01-01,499.7096577705648
KGOV0,Grayling,US,MI,,KGOV,44.6803,-84.7289,353.0,America/Detroit,2006-01-01,2022-09-22,2006-01-01,2022-04-24,2006-01-01,2021-01-01,176.6981195847053
KGPZ0,Grand Rapids / Country Acres Mobile Home Park,US,MN,,KGPZ,47.2093,-93.5099,413.0,America/Chicago,2006-01-01,2022-09-22,2006-01-01,2022-04-24,2006-01-01,2022-01-01,590.5973201292599
KGSH0,Goshen / Bainter Town,US,IN,,KGSH,41.5263,-85.7942,252.0,America/Indiana/Indianapolis,1999-01-14,2022-09-22,1999-01-23,2022-04-24,2005-01-01,2021-01-01,116.09204891166372
KGUS0,Bunker Hill / Grissom Air Force Base,US,IN,,KGUS,40.6481,-86.1521,248.0,America/Indiana/Indianapolis,2006-01-01,2022-09-22,2008-01-09,2022-04-24,2008-01-01,2021-01-01,165.61314094379543
KGWB0,Auburn / Saint Johns,US,IN,,KGWB,41.3072,-85.0644,268.0,America/Indiana/Indianapolis,2011-05-19,2022-09-22,2011-05-20,2022-04-24,2015-01-01,2022-01-01,92.93913078604272
KGWR0,Gwinner,US,ND,,KGWR,46.2187,-97.6435,386.0,America/Chicago,2014-07-01,2022-09-22,2014-07-01,2022-04-24,2015-01-01,2022-01-01,741.9043545019839
KGYL0,Glencoe / Plato,US,MN,,KGYL,44.756,-94.0812,303.0,America/Chicago,2006-01-01,2022-09-22,2006-01-02,2022-04-24,2006-01-01,2022-01-01,547.6757786138156
KGYY0,Gary / Clarke Junction,US,IN,,KGYY,41.6163,-87.4128,180.0,America/Chicago,2006-01-01,2022-09-22,2020-01-14,2022-04-24,2020-01-01,2022-01-01,193.59383415480508
KHAI0,Three Rivers / Meadow Lane Village Mobile Home Park,US,MI,,KHAI,41.9597,-85.5934,251.0,America/Detroit,2006-10-24,2022-09-22,2006-10-25,2022-04-24,2006-01-01,2022-01-01,96.71114378737998
KHCD0,Hutchinson / Heatwole,US,MN,,KHCD,44.8599,-94.3825,324.0,America/Chicago,2006-01-01,2022-09-22,2006-01-01,2022-04-24,2006-01-01,2022-01-01,563.8413121337281
KHCO0,Hallock / Viking Land Terrace,US,MN,,KHCO,48.7527,-96.943,250.0,America/Chicago,2006-01-01,2022-09-22,2006-01-01,2022-04-24,2006-01-01,2022-01-01,782.0269663328795
KHDE0,Holdrege / Dewaynes Trailer Court,US,NE,,KHDE,40.4521,-99.3365,705.0,America/Chicago,2006-01-01,2022-09-22,2006-01-01,2022-04-24,2007-01-01,2022-01-01,818.8745599986039
KHHG0,Huntington / Simpson,US,IN,,KHHG,40.8529,-85.4571,246.0,America/Indiana/Indianapolis,2020-01-14,2022-09-22,2020-01-14,2022-04-24,2020-01-01,2021-01-01,129.6704507985875
KHIB0,Hibbing-Chisholm / Wilpen,US,MN,,KHIB,47.3866,-92.839,413.0,America/Chicago,1973-01-01,2022-09-22,1973-01-01,2022-04-24,1973-01-01,2022-01-01,571.1546165880914
KHJH0,Hebron,US,NE,,KHJH,40.1523,-97.587,448.0,America/Chicago,2006-01-01,2022-09-22,2006-01-02,2022-04-24,2008-01-01,2022-01-01,734.6979730564813
KHNR0,Harlan / Corley,US,IA,,KHNR,41.5844,-95.3397,375.0,America/Chicago,2006-01-01,2022-09-22,2006-01-01,2022-04-24,2012-01-01,2022-01-01,598.9332217273785
KHPT0,Hampton,US,IA,,KHPT,42.7237,-93.2263,358.0,America/Chicago,2020-01-14,2022-09-22,2020-01-14,2022-04-24,2020-01-01,2021-01-01,485.4168257095812
KHSI0,Hastings / Ingleside,US,NE,,KHSI,40.6052,-98.4279,598.0,America/Chicago,2006-01-01,2022-09-22,2006-01-01,2022-04-24,2006-01-01,2021-01-01,769.8916229613512
KHYR0,Hayward,US,WI,,KHYR,46.0253,-91.4442,371.0,America/Chicago,2006-01-01,2022-09-22,2006-01-01,2022-04-24,2006-01-01,2021-01-01,463.9000965001974
KHYX0,Saginaw / Robin Glen Mobile Home Community,US,MI,,KHYX,43.4334,-83.8623,183.0,America/Detroit,2006-01-01,2022-09-22,2006-01-01,2022-04-24,2006-01-01,2022-01-01,83.76128516786304
KHZX0,McGregor,US,MN,,KHZX,46.6188,-93.3098,374.0,America/Chicago,2006-01-01,2022-09-22,2006-01-01,2022-04-24,2007-01-01,2022-01-01,561.632255599902
KHZY0,Ashtabula / Bulah,US,OH,,KHZY,41.778,-80.6955,282.0,America/New_York,2006-01-01,2022-09-22,2006-01-01,2022-04-24,2006-01-01,2021-01-01,159.98720752408235
KI740,Urbana / McKeever Mobile Home Park,US,OH,,KI74,40.1326,-83.7535,326.0,America/New_York,2020-01-14,2022-09-22,2020-01-14,2022-04-24,2020-01-01,2022-01-01,144.25459017484738
KI750,Osceola,US,IA,,KI75,41.0522,-93.6897,340.0,America/Chicago,2010-03-04,2022-09-22,2010-03-04,2022-04-24,2011-01-01,2022-01-01,520.817426569003
KICL0,Clarinda,US,IA,,KICL,40.7222,-95.0266,303.0,America/Chicago,2006-01-01,2022-09-22,2006-01-01,2022-04-24,2015-01-01,2022-01-01,594.153978176157
KICR0,Winner,US,SD,,KICR,43.3903,-99.8422,620.0,America/Chicago,2006-01-01,2022-09-22,2006-01-04,2022-04-24,2007-01-01,2022-01-01,820.789163618914
KIFA0,Iowa Falls / Racine,US,IA,,KIFA,42.4708,-93.27,347.0,America/Chicago,2007-10-16,2022-09-22,2007-10-19,2022-04-24,2014-01-01,2022-01-01,487.6977793605343
KIGQ0,Chicago / Lynwood,US,IL,,KIGQ,41.5349,-87.5295,189.0,America/Chicago,2006-01-02,2022-09-22,2011-03-17,2022-04-24,2014-01-01,2022-01-01,200.84353000868003
KIIB0,Independence / Pine Ridge Mobile Home Court,US,IA,,KIIB,42.4569,-91.9477,298.0,America/Chicago,2006-01-01,2022-09-22,2006-01-01,2022-04-24,2014-01-01,2022-01-01,420.14445121106183
KIKK0,Kankakee / Aroma Park,US,IL,,KIKK,41.0714,-87.8463,192.0,America/Chicago,2006-01-22,2022-09-22,2006-04-01,2022-04-24,2011-01-01,2022-01-01,226.63092833313993
KIKV0,Ankeny / Oakwood Heights Mobile Home Park,US,IA,,KIKV,41.6911,-93.5665,277.0,America/Chicago,2006-01-01,2022-09-22,2006-01-01,2022-04-24,2011-01-01,2022-01-01,506.97770616922355
KIKW0,Midland / Alpine Mobile Home Village,US,MI,,KIKW,43.6629,-84.2613,194.0,America/Detroit,2009-04-06,2022-09-22,2009-04-07,2022-04-24,2009-01-01,2022-01-01,102.77761082897743
KIMT0,Iron Mountain,US,MI,,KIMT,45.8184,-88.1146,360.0,America/Menominee,2006-01-01,2022-09-22,2006-01-01,2022-04-24,2006-01-01,2022-01-01,330.0429528848237
KIOW0,Iowa City / Baculis Mobile Home Park,US,IA,,KIOW,41.6398,-91.5481,204.0,America/Chicago,1997-01-23,2022-09-22,1997-02-13,2022-04-24,2005-01-01,2021-01-01,403.97761853607
KIRK0,Kirksville / Millard,US,MO,,KIRK,40.0935,-92.5449,294.0,America/Chicago,1973-01-01,2022-09-22,1973-01-01,2022-04-24,2004-01-01,2022-01-01,481.60280751268226
KIRS0,Sturgis,US,MI,,KIRS,41.8133,-85.4389,282.0,America/Detroit,2006-01-01,2022-09-22,2006-01-01,2022-04-24,2006-01-01,2022-01-01,91.61881348512748
KISQ0,Manistique,US,MI,,KISQ,45.9746,-86.1718,209.0,America/Detroit,2006-01-01,2022-09-22,2006-01-01,2022-04-24,2006-01-01,2022-01-01,285.73390093925786
KISW0,Wisconsin Rapids / Port Edwards,US,WI,,KISW,44.3603,-89.839,311.0,America/Chicago,2006-01-01,2022-09-22,2006-01-01,2022-04-24,2006-01-01,2022-01-01,340.7391577390408
KIWD0,Ironwood / Hautala Corner,US,MI,,KIWD,46.5275,-90.1314,375.0,America/Menominee,2006-01-01,2022-09-22,2006-01-01,2022-04-24,2008-01-01,2022-01-01,433.71630762897803
KJKJ0,Moorhead / Park Lane Mobile Home Park,US,MN,,KJKJ,46.8393,-96.664,280.0,America/Chicago,2006-01-01,2022-09-22,2006-01-01,2022-04-24,2006-01-01,2022-01-01,712.0405789291231
KJMR0,Mora,US,MN,,KJMR,45.8861,-93.2718,308.0,America/Chicago,2006-01-01,2022-09-22,2006-01-01,2022-04-24,2006-01-01,2022-01-01,537.0372891753193
KJMS0,Jamestown,US,ND,,KJMS,46.9297,-98.6782,457.0,America/Chicago,1973-01-01,2022-09-22,1973-01-01,2022-04-24,2000-01-01,2022-01-01,803.7566281212584
KJVL0,Janesville / Afton,US,WI,,KJVL,42.6202,-89.0416,246.0,America/Chicago,2006-01-01,2022-09-22,2020-01-14,2022-04-24,2020-01-01,2022-01-01,272.1751936364928
KJXN0,Jackson / Coffman Trailer Court,US,MI,,KJXN,42.2604,-84.4604,305.0,America/Detroit,1973-01-01,2022-09-22,1973-01-03,2022-04-24,2000-01-01,2022-01-01,36.74975259240599
KJYG0,St James / Grogan,US,MN,,KJYG,43.9863,-94.5579,325.0,America/Chicago,2006-01-01,2022-09-22,2006-01-03,2022-04-24,2008-01-01,2022-01-01,559.8334142801216
KJYM0,Hillsdale,US,MI,,KJYM,41.9213,-84.5858,361.0,America/Detroit,2006-01-01,2022-09-22,2006-01-01,2022-04-24,2008-01-01,2022-01-01,47.96122889486565
KJYR0,York,US,NE,,KJYR,40.8964,-97.6241,509.0,America/Chicago,2006-01-01,2022-09-22,2006-01-02,2022-04-24,2010-01-01,2022-01-01,724.3627385100133
KLAF0,Lafayette / Summit,US,IN,,KLAF,40.4123,-86.9369,185.0,America/Indiana/Indianapolis,1973-01-01,2022-09-22,1973-01-01,2022-04-24,1979-01-01,2022-01-01,207.7757837379201
KLCG0,Wayne,US,NE,,KLCG,42.2416,-96.9823,436.0,America/Chicago,2006-01-01,2022-09-22,2006-01-04,2022-04-19,2009-01-01,2022-01-01,678.2727876708343
KLDM0,Ludington / Hidden Forest Mobile Home Park,US,MI,,KLDM,43.9625,-86.4079,197.0,America/Detroit,2005-01-01,2022-09-22,2005-01-01,2022-04-24,2006-01-01,2022-01-01,180.4255687547471
KLJF0,Litchfield / Evergreen Mobile Home Park,US,MN,,KLJF,45.1,-94.5,347.0,America/Chicago,2006-01-01,2022-09-22,2006-01-01,2022-04-24,2007-01-01,2022-01-01,573.8911545170909
KLNL0,Land O Lakes / Land O' Lakes,US,WI,,KLNL,46.154,-89.2121,520.0,America/Chicago,2006-01-01,2022-09-22,2006-01-04,2022-04-24,2009-01-01,2022-01-01,383.76984028835477
KLNN0,Willoughby / Woodbridge,US,OH,,KLNN,41.684,-81.3898,191.0,America/New_York,1983-11-03,2022-09-22,2015-01-09,2022-04-24,2015-01-01,2022-01-01,126.93541309969777
KLNR0,Lone Rock,US,WI,,KLNR,43.2119,-90.1798,219.0,America/Chicago,1973-01-01,2022-09-22,2004-01-03,2022-04-24,2005-01-01,2022-01-01,334.43918830851663
KLOT0,Joliet / Lockport / Nottingham Ridge,US,IL,,KLOT,41.6081,-88.0962,207.0,America/Chicago,2006-01-23,2022-09-22,2008-04-04,2022-04-19,2011-01-01,2021-01-01,228.2221953215894
KLPR0,Lorain / West Ridge Green,US,OH,,KLPR,41.35,-82.1833,241.0,America/New_York,2006-01-01,2022-09-22,2006-01-01,2022-04-24,2006-01-01,2022-01-01,100.7051025446704
KLRJ0,Le Mars / Armel Acres Mobile Home Estates,US,IA,,KLRJ,42.7779,-96.1937,365.0,America/Chicago,2006-01-01,2022-09-22,2006-01-01,2022-04-24,2011-01-01,2022-01-01,636.3686607450504
KLUM0,Menomonie / Rusk,US,WI,,KLUM,44.8923,-91.8678,273.0,America/Chicago,2006-01-01,2022-09-22,2006-01-01,2022-04-24,2006-01-01,2022-01-01,447.22006319004896
KLVN0,Minneapolis / Lakeville,US,MN,,KLVN,44.6279,-93.2281,293.0,America/Chicago,2006-01-01,2022-09-22,2006-01-01,2022-04-24,2007-01-01,2022-01-01,504.8178987542485
KLWA0,South Haven / Mitchell Brothers Mobile Home Park,US,MI,,KLWA,42.3512,-86.2556,203.0,America/Detroit,2006-01-01,2022-09-22,2006-01-01,2022-04-24,2006-01-01,2022-01-01,128.93427069146344
KLWD0,Lamoni / Togo (Historical),US,IA,,KLWD,40.6333,-93.9022,345.0,America/Chicago,2006-01-01,2022-09-22,2006-01-01,2022-04-24,2006-01-01,2021-01-01,538.4626981498113
KLXL0,Little Falls / Gregory,US,MN,,KLXL,45.9494,-94.3471,342.0,America/Chicago,2006-01-01,2022-09-22,2006-01-01,2022-04-24,2007-01-01,2022-01-01,586.3321938920424
KLXN0,Lexington / Donald Price Mobile Home Park,US,NE,,KLXN,40.7904,-99.7759,736.0,America/Chicago,2005-01-01,2022-09-22,2005-01-01,2022-04-24,2010-01-01,2022-01-01,836.196621627179
KLYV0,Luverne,US,MN,,KLYV,43.6168,-96.2177,437.0,America/Chicago,2006-01-01,2022-09-22,2006-01-04,2022-04-24,2007-01-01,2022-01-01,639.3901276863262
KMBL0,Manistee / Newland,US,MI,,KMBL,44.2725,-86.2469,189.0,America/Detroit,2006-01-01,2022-09-22,2006-01-01,2022-04-24,2008-01-01,2022-01-01,189.58467168576593
KMBS0,Saginaw / Falconview Estates Mobile Home Park,US,MI,,KMBS,43.5329,-84.0796,204.0,America/Detroit,1973-01-01,2022-09-22,1973-01-01,2022-04-24,1974-01-01,2022-01-01,91.99614212162238
KMCD0,Mackinac Island / British Landing,US,MI,,KMCD,45.8649,-84.6373,226.0,America/Detroit,2006-01-01,2022-09-22,2006-01-01,2022-04-24,2008-01-01,2022-01-01,255.33212072313648
KMCW0,Mason City / Orchard Park Mobile Home Court,US,IA,,KMCW,43.1578,-93.3313,370.0,America/Chicago,1973-01-01,2022-09-22,1973-01-01,2022-04-24,1975-01-01,2022-01-01,492.07958670137697
KMCX0,Monticello / Cedar Point,US,IN,,KMCX,40.7088,-86.7668,206.0,America/Indiana/Indianapolis,2020-01-14,2022-09-22,2020-01-14,2022-04-24,2020-01-01,2022-01-01,188.43427039437617
KMDS0,Madison,US,SD,,KMDS,44.0164,-97.0856,524.0,America/Chicago,2009-03-14,2022-09-22,2009-03-30,2022-04-24,2010-01-01,2022-01-01,685.0523946576599
KMDZ0,Medford / Little Black,US,WI,,KMDZ,45.1015,-90.3008,451.0,America/Chicago,2006-01-01,2022-09-22,2006-01-01,2022-04-24,2006-01-01,2022-01-01,383.7866887330373
KMFI0,Marshfield / Bakerville,US,WI,,KMFI,44.6369,-90.1893,390.0,America/Chicago,2006-01-01,2022-09-22,2006-01-01,2022-04-24,2006-01-01,2022-01-01,364.3694104114117
KMGC0,Michigan City / Davis,US,IN,,KMGC,41.7033,-86.8212,200.0,America/Chicago,2012-01-10,2022-09-22,2012-01-11,2022-04-24,2015-01-01,2022-01-01,162.42601467591382
KMGG0,Maple Lake,US,MN,,KMGG,45.236,-93.9856,313.0,America/Chicago,2006-01-01,2022-09-22,2006-01-01,2022-04-24,2007-01-01,2021-01-01,552.7386247832497
KMGN0,Harbor Springs / Menonaqua Beach,US,MI,,KMGN,45.4256,-84.9134,209.0,America/Detroit,2006-01-01,2022-09-22,2006-01-01,2022-04-24,2006-01-01,2022-01-01,228.674828849704
KMHE0,Mitchell / River Bluff Addition,US,SD,,KMHE,43.7748,-98.0386,398.0,America/Chicago,2006-01-01,2022-09-22,2006-01-01,2022-04-24,2006-01-01,2022-01-01,731.1331070958784
KMIC0,Minneapolis / Brooklyn Center,US,MN,,KMIC,45.062,-93.3539,265.0,America/Chicago,2006-01-01,2022-09-22,2006-01-01,2022-04-24,2006-01-01,2021-01-01,519.6491087544881
KMIE0,Muncie / Drew,US,IN,,KMIE,40.2425,-85.3958,286.0,America/Indiana/Indianapolis,2006-01-01,2022-09-22,2006-01-01,2022-04-24,2006-01-01,2022-01-01,161.45187758118539
KMIW0,Marshalltown / Maulsby,US,IA,,KMIW,42.1127,-92.9178,297.0,America/Chicago,2006-01-01,2022-09-22,2006-01-01,2022-04-24,2006-01-01,2021-01-01,470.786166643102
KMJQ0,Jackson,US,MN,,KMJQ,43.65,-94.9865,441.0,America/Chicago,2006-01-01,2022-09-22,2006-01-01,2022-04-24,2006-01-01,2022-01-01,578.1069562276747
KMKT0,Mankato / Knollwood Park,US,MN,,KMKT,44.2228,-93.9193,311.0,America/Menominee,2006-01-01,2022-09-22,2006-01-01,2022-04-24,2006-01-01,2022-01-01,531.4373625570726
KMLE0,Omaha / Millard,US,NE,,KMLE,41.196,-96.1123,320.0,America/Chicago,2006-01-01,2022-09-22,2006-01-01,2022-04-24,2006-01-01,2022-01-01,642.8776589709018
KMML0,Marshall,US,MN,,KMML,44.4517,-95.8244,361.0,America/Chicago,2006-01-01,2022-09-22,2006-01-01,2022-04-24,2008-01-01,2022-01-01,627.1328877300687
KMNM0,Menominee / Bayside Mobile Estates,US,MI,,KMNM,45.1267,-87.6384,191.0,America/Chicago,2005-01-01,2022-09-22,2005-01-01,2022-04-24,2005-01-01,2022-01-01,279.641553236209
KMNN0,Marion / Logan (Historical),US,OH,,KMNN,40.6163,-83.0635,303.0,America/New_York,2006-01-01,2022-09-22,2006-01-01,2022-04-21,2006-01-01,2022-01-01,116.40214917978744
KMOP0,Mt Pleasant / Broadway Acres Mobile Home Park,US,MI,,KMOP,43.6216,-84.7373,230.0,America/Detroit,2006-01-01,2022-09-22,2006-01-01,2022-04-24,2006-01-01,2022-01-01,108.86374024944685
KMOX0,Morris,US,MN,,KMOX,45.566,-95.9672,346.0,America/Chicago,2006-01-01,2022-09-22,2006-01-01,2022-04-24,2006-01-01,2022-01-01,651.5409621763624
KMPZ0,Mount Pleasant / Woodside Mobile Estates,US,IA,,KMPZ,40.9466,-91.5111,223.0,America/Chicago,2006-01-01,2022-09-22,2006-01-01,2022-04-24,2015-01-01,2022-01-01,411.7340029142701
KMQB0,Macomb / Good Hope,US,IL,,KMQB,40.5201,-90.6524,215.0,America/Chicago,2006-02-01,2022-09-22,2006-02-15,2022-04-24,2012-01-01,2022-01-01,377.65713299744004
KMRJ0,Mineral Point / Linden,US,WI,,KMRJ,42.8868,-90.2362,357.0,America/Chicago,2006-01-01,2022-09-22,2006-01-01,2022-04-24,2007-01-01,2022-01-01,334.29160452269593
KMRT0,Marysville / Countryside Mobile Home Park,US,OH,,KMRT,40.2247,-83.3516,311.0,America/New_York,2009-07-21,2022-09-22,2009-07-22,2022-04-25,2011-01-01,2022-01-01,139.41854479172068
KMTW0,Manitowac / Kellners Corners,US,WI,,KMTW,44.1288,-87.6806,198.0,America/Chicago,2006-01-01,2022-09-22,2006-01-01,2022-04-24,2008-01-01,2022-01-01,238.35163616719626
KMUT0,Muscatine / Fruitland,US,IA,,KMUT,41.3678,-91.1482,167.0,America/Chicago,2006-01-01,2022-09-22,2006-01-01,2022-04-24,2011-01-01,2022-01-01,386.7125006727801
KMVE0,Montevideo,US,MN,,KMVE,44.9691,-95.7103,316.0,America/Chicago,2006-01-01,2022-09-22,2006-01-01,2022-04-24,2006-01-01,2022-01-01,628.8491538880425
KMWC0,Milwaukee / Butler,US,WI,,KMWC,43.1104,-88.0344,227.0,America/Chicago,1973-01-01,2022-09-22,2020-01-14,2022-04-24,2020-01-01,2022-01-01,226.8667728505398
KMWM0,Windom / Bingham Lake,US,MN,,KMWM,43.9134,-95.1094,430.0,America/Chicago,2006-01-01,2022-09-22,2006-01-01,2022-04-24,2007-01-01,2022-01-01,586.3472241064796
KMXO0,Monticello,US,IA,,KMXO,42.2204,-91.1633,254.0,America/Chicago,2006-01-01,2022-05-20,2006-01-01,2022-04-24,2014-01-01,2022-01-01,380.42272830222066
KMZH0,Moose Lake,US,MN,,KMZH,46.4186,-92.8048,328.0,America/Chicago,2006-01-01,2022-09-22,2006-01-01,2022-04-24,2006-01-01,2022-01-01,533.8656827721499
KMZZ0,Marion / Kiley,US,IN,,KMZZ,40.4899,-85.6797,262.0,America/Indiana/Indianapolis,2010-01-14,2022-09-22,2010-01-15,2022-04-25,2014-01-01,2022-01-01,156.25325085714198
KOCQ0,Oconto,US,WI,,KOCQ,44.8742,-87.9096,184.0,America/Chicago,2014-07-31,2022-09-22,2014-08-06,2022-04-24,2020-01-01,2022-01-01,277.81459707810643
KODX0,Ord / Manchester Trailer Court,US,NE,,KODX,41.6237,-98.9519,631.0,America/Chicago,2006-01-01,2022-09-22,2006-01-01,2022-04-24,2006-01-01,2022-01-01,783.8248030083657
KOEB0,Coldwater / Countryside Mobile Court,US,MI,,KOEB,41.9336,-85.0523,292.0,America/Detroit,2006-01-01,2022-09-22,2006-01-01,2022-04-25,2008-01-01,2022-01-01,70.0930757576492
KOEO0,Osceola,US,WI,,KOEO,45.3095,-92.69,276.0,America/Chicago,2006-01-01,2022-09-22,2006-01-01,2022-04-24,2006-01-01,2022-01-01,495.2782655806956
KOKK0,Kokomo / Vermont,US,IN,,KOKK,40.5282,-86.059,253.0,America/Indiana/Indianapolis,2006-01-01,2022-09-22,2006-01-01,2022-04-24,2006-01-01,2022-01-01,167.73736641167838
KOLG0,Solon Springs,US,WI,,KOLG,46.3148,-91.8164,336.0,America/Chicago,2020-01-14,2022-09-22,2020-01-14,2022-04-24,2020-01-01,2022-01-01,489.6459149826387
KOLZ0,Oelwein,US,IA,,KOLZ,42.6808,-91.9745,328.0,America/Chicago,2006-01-01,2022-09-22,2006-01-05,2022-04-24,2012-01-01,2022-01-01,421.6390143285184
KONA0,Winona / Country Valley Mobile Home Park,US,MN,,KONA,44.0772,-91.7083,200.0,America/Chicago,2006-01-01,2022-09-22,2006-01-01,2022-04-24,2006-01-01,2022-01-01,422.1227675204641
KONL0,O'neill / Douthit Trailer Court,US,NE,,KONL,42.4695,-98.6873,620.0,America/Chicago,2006-01-01,2022-09-22,2006-01-03,2022-04-24,2007-01-01,2022-01-01,764.2310853557013
KONZ0,Grosse Ile / Gibraltar,US,MI,,KONZ,42.0991,-83.1615,180.0,America/Detroit,2006-01-01,2022-09-22,2006-01-01,2022-04-25,2008-01-01,2022-01-01,31.189316003627013
KOOA0,Oskaloosa / Cedar,US,IA,,KOOA,41.2261,-92.4938,256.0,America/Chicago,2006-01-01,2022-09-22,2006-01-04,2022-04-24,2012-01-01,2022-01-01,457.29476822795846
KORB0,Orr / Glendale,US,MN,,KORB,48.0159,-92.8561,400.0,America/Chicago,2006-01-01,2022-09-22,2006-01-01,2022-04-11,2006-01-01,2022-01-01,597.943097962108
KORC0,Orange City / Candlelight Trailer Court,US,IA,,KORC,42.9903,-96.0628,431.0,America/Chicago,2006-01-01,2019-02-28,2006-01-01,2019-02-27,2011-01-01,2017-01-01,629.70341960575
KOSC0,Oscoda / Whispering Woods Mobile Home Community,US,MI,,KOSC,44.4515,-83.3942,193.0,America/Detroit,1943-07-01,2022-09-22,1943-07-02,2022-04-25,1943-01-01,2022-01-01,154.85725798840036
KOSH0,Oshkosh / Stony Beach,US,WI,,KOSH,43.9844,-88.557,246.0,America/Chicago,2006-01-01,2022-09-22,2006-01-01,2022-04-24,2006-01-01,2022-01-01,271.99288623187374
KOSU0,Columbus / Linworth,US,OH,,KOSU,40.0798,-83.073,276.0,America/New_York,2006-01-01,2022-09-22,2006-01-01,2022-04-24,2006-01-01,2022-01-01,151.99933967436445
KOTG0,Worthington / Sungold Heights Mobile Home Park,US,MN,,KOTG,43.6551,-95.5792,480.0,America/Chicago,2006-01-01,2022-09-22,2006-01-01,2022-04-24,2006-01-01,2022-01-01,607.7098366187491
KOTM0,Ottumwa / Keb (Historical),US,IA,,KOTM,41.1066,-92.4479,258.0,America/Chicago,1973-01-01,2022-09-22,1973-01-01,2022-04-24,1975-01-01,2021-01-01,456.67789927457557
KOVL0,Olivia,US,MN,,KOVL,44.7786,-95.0328,328.0,America/Chicago,2006-01-01,2022-09-22,2006-01-01,2022-04-24,2006-01-01,2022-01-01,593.4466213574061
KOVS0,Boscobel,US,WI,,KOVS,43.1608,-90.674,205.0,America/Chicago,2006-01-01,2022-09-22,2006-01-01,2022-04-24,2006-01-01,2022-01-01,358.57012844226426
KOWA0,Owatonna / Clinton Falls,US,MN,,KOWA,44.123,-93.2588,349.0,America/Chicago,2006-01-01,2022-09-22,2006-01-01,2022-04-24,2006-01-01,2022-01-01,497.89989642098186
KOWX0,Ottawa / Upper Tauwa (Historical),US,OH,,KOWX,41.0356,-83.982,233.0,America/New_York,2016-09-09,2022-09-22,2016-09-10,2022-04-25,2017-01-01,2021-01-01,82.85540188170684
KOXI0,Knox / Indian Hill,US,IN,,KOXI,41.3302,-86.6648,209.0,America/Indiana/Knox,2008-10-23,2022-09-22,2009-06-09,2022-04-24,2011-01-01,2022-01-01,162.89853132086128
KOXV0,Knoxville / Wheel Estates Mobile Home Park,US,IA,,KOXV,41.2991,-93.1137,283.0,America/Chicago,2006-01-01,2022-09-22,2006-01-01,2022-04-24,2014-01-01,2022-01-01,488.006163590511
KOZW0,Howell / Burkhart Ridge Mobile Home Park,US,MI,,KOZW,42.6294,-83.9822,293.0,America/Detroit,2006-01-01,2022-09-22,2006-01-01,2022-04-25,2007-01-01,2022-01-01,30.548844226664635
KP580,Port Hope / Huron City,US,MI,,KP58,44.0219,-82.7931,180.0,America/Detroit,2006-01-01,2022-09-22,2006-01-01,2022-04-24,2006-01-01,2021-01-01,133.19116580861095
KPBH0,Phillips,US,WI,,KPBH,45.7089,-90.4025,456.0,America/Chicago,2006-01-01,2022-09-22,2006-01-01,2022-04-24,2007-01-01,2022-01-01,409.7905098113207
KPCW0,Port Clinton / Gypsum,US,OH,,KPCW,41.5163,-82.8695,180.0,America/New_York,2014-07-31,2022-09-22,2014-08-01,2022-04-25,2020-01-01,2022-01-01,66.4929552626028
KPCZ0,Waupaca,US,WI,,KPCZ,44.3332,-89.0198,256.0,America/Chicago,2006-01-01,2022-09-22,2006-01-04,2022-04-24,2008-01-01,2022-01-01,303.20790895072105
KPDC0,Prairie Du Chien / Selchs Mobile Home Park,US,WI,,KPDC,43.0193,-91.1237,201.0,America/Chicago,2006-01-01,2022-09-22,2006-01-01,2022-04-24,2007-01-01,2022-01-01,379.98259826768765
KPEA0,Pella,US,IA,,KPEA,41.4012,-92.9459,270.0,America/Chicago,2006-01-01,2022-09-22,2006-01-01,2022-04-24,2011-01-01,2022-01-01,478.16678906697217
KPEX0,Paynesville,US,MN,,KPEX,45.3721,-94.7447,361.0,America/Chicago,2005-08-12,2022-09-22,2005-08-13,2022-04-24,2011-01-01,2022-01-01,590.8219512703417
KPHD0,New Philadelphia / Schoenbrunn Estates,US,OH,,KPHD,40.4702,-81.4199,273.0,America/New_York,2006-01-01,2022-09-22,2006-01-01,2022-04-24,2006-01-01,2022-01-01,171.0404471434868
KPHN0,Port Huron / Marysville,US,MI,,KPHN,42.911,-82.5289,198.0,America/Detroit,2006-01-01,2022-09-22,2006-01-01,2022-04-25,2007-01-01,2022-01-01,78.1577427351448
KPJC0,Zelienople / Old Furnace,US,PA,,KPJC,40.802,-80.1609,274.0,America/New_York,2020-01-14,2022-09-22,2020-01-14,2022-04-12,2020-01-01,2021-01-01,210.19501361119515
KPKD0,Park Rapids,US,MN,,KPKD,46.9007,-95.0731,440.0,America/Chicago,1990-01-11,2022-09-22,1995-07-05,2022-04-24,1998-01-01,2022-01-01,644.845503646951
KPLD0,Portland,US,IN,,KPLD,40.4516,-84.989,282.0,America/Indiana/Indianapolis,2020-01-14,2022-07-06,2020-01-14,2022-04-18,2020-01-01,2022-01-01,138.2923765450338
KPLN0,Pellston,US,MI,,KPLN,45.5709,-84.7967,220.0,America/Detroit,1973-01-01,2022-09-22,1973-01-01,2022-04-24,2000-01-01,2021-01-01,237.01681758112971
KPMV0,Plattsmouth / Mynard,US,NE,,KPMV,40.9484,-95.9174,367.0,America/Chicago,2006-11-21,2022-09-22,2006-11-22,2022-04-24,2009-01-01,2022-01-01,636.2083673390464
KPNM0,Princeton / Princetown [Misspelling],US,MN,,KPNM,45.5599,-93.6082,299.0,America/Chicago,2006-01-01,2022-09-22,2006-01-01,2022-04-24,2006-01-01,2022-01-01,543.1495742413008
KPNT0,Pontiac / Cayuga,US,IL,,KPNT,40.9244,-88.6239,203.0,America/Chicago,2006-09-26,2022-09-22,2011-03-18,2022-04-24,2015-01-01,2022-01-01,268.175427890862
KPOV0,Ravenna / Birchwood Manor,US,OH,,KPOV,41.2102,-81.2516,365.0,America/New_York,2009-03-18,2022-09-22,2009-03-19,2022-04-25,2009-01-01,2022-01-01,146.6773196844396
KPPO0,La Porte / South Laporte,US,IN,,KPPO,41.5725,-86.7345,248.0,America/Chicago,2012-04-02,2022-09-22,2012-04-03,2022-04-24,2015-01-01,2022-01-01,160.51363577902003
KPQN0,Pipestone,US,MN,,KPQN,43.9833,-96.3003,529.0,America/Chicago,2006-01-01,2022-08-02,2006-01-01,2022-04-24,2012-01-01,2022-01-01,645.894728563919
KPTK0,Pontiac / Waterford,US,MI,,KPTK,42.6656,-83.4205,299.0,America/Detroit,2006-01-01,2022-09-22,2006-01-01,2022-04-24,2006-01-01,2022-01-01,34.777644646083594
KPVB0,Platteville / Ipswich,US,WI,,KPVB,42.6894,-90.4444,312.0,America/Chicago,2008-08-25,2022-09-22,2008-08-27,2022-04-24,2015-01-01,2022-01-01,343.80551761190543
KPWC0,Pine River,US,MN,,KPWC,46.7248,-94.3817,395.0,America/Chicago,2006-01-01,2022-09-22,2006-01-01,2022-04-24,2006-01-01,2022-01-01,610.0708967624741
KPWK0,Chicago / Wood Oaks Glen,US,IL,,KPWK,42.1143,-87.9015,197.0,America/Chicago,2006-01-01,2022-09-22,2006-01-01,2022-04-24,2006-01-01,2021-01-01,213.4950029314821
KPZQ0,Presque Isle / Rogers City,US,MI,,KPZQ,45.4071,-83.8129,204.0,America/Detroit,2006-01-01,2022-09-22,2006-01-01,2022-04-25,2006-01-01,2022-01-01,219.85506636104967
KRAC0,Racine / Ives,US,WI,,KRAC,42.7612,-87.8139,205.0,America/Chicago,2006-01-01,2022-09-22,2006-01-01,2022-04-24,2006-01-01,2022-01-01,211.09090452815312
KRCR0,Rochester / Big Hill,US,IN,,KRCR,41.0655,-86.1817,241.0,America/Indiana/Indianapolis,2010-06-30,2022-09-22,2011-02-09,2022-04-25,2012-01-01,2022-01-01,149.27135884330954
KRCX0,Ladysmith / Tony,US,WI,,KRCX,45.4968,-91.0005,378.0,America/Chicago,2009-06-17,2022-09-22,2009-06-17,2022-04-24,2009-01-01,2022-01-01,426.8658462808973
KRDK0,Red Oak / Villa Village Mobile Home Park,US,IA,,KRDK,41.0108,-95.2589,319.0,America/Chicago,2006-01-01,2022-09-22,2006-01-01,2022-04-24,2011-01-01,2022-01-01,601.6228126050153
KRGK0,Red Wing / Oak Hill Mobile Home Park,US,MN,,KRGK,44.5894,-92.485,237.0,America/Chicago,2006-01-01,2022-09-22,2006-01-01,2022-04-24,2006-01-01,2022-01-01,468.9319521832161
KRHI0,Rhinelander,US,WI,,KRHI,45.6309,-89.4666,495.0,America/Chicago,2006-01-01,2022-09-22,2006-01-01,2022-04-24,2006-01-01,2022-01-01,369.7695492707318
KRMY0,Marshall,US,MI,,KRMY,42.2512,-84.9554,287.0,America/Detroit,2006-01-01,2022-09-22,2006-01-01,2022-04-25,2008-01-01,2022-01-01,62.080064228429855
KRNH0,New Richmond / Woodbridge Trailer Court,US,WI,,KRNH,45.1478,-92.5392,304.0,America/Chicago,2006-01-01,2022-09-22,2006-01-02,2022-04-24,2007-01-01,2022-01-01,484.2817227246464
KRNP0,Owosso / Middletown,US,MI,,KRNP,42.993,-84.1385,224.0,America/Detroit,2005-01-01,2022-09-22,2005-01-01,2022-04-25,2006-01-01,2022-01-01,56.79927576592002
KROS0,Rush City / Stenger's Mobile Home Park,US,MN,,KROS,45.6971,-92.9522,282.0,America/Chicago,2006-01-01,2022-09-22,2006-01-01,2022-04-24,2006-01-01,2022-01-01,517.5723889783686
KRPD0,Rice Lake / Cameron,US,WI,,KRPD,45.4201,-91.7733,338.0,America/Chicago,2006-01-01,2022-09-22,2006-01-01,2022-04-24,2011-01-01,2022-01-01,457.67063447982804
KRPJ0,Rochelle / Southgate,US,IL,,KRPJ,41.893,-89.0783,238.0,America/Chicago,2006-05-16,2022-09-22,2011-03-16,2022-04-24,2015-01-01,2022-01-01,275.1821196339896
KRQB0,Big Rapids / Havenview Mobile Home Court,US,MI,,KRQB,43.7226,-85.5041,302.0,America/Detroit,2006-01-01,2022-09-22,2006-01-01,2022-04-25,2007-01-01,2022-01-01,136.59895664733523
KRRL0,Merrill,US,WI,,KRRL,45.1989,-89.7129,402.0,America/Chicago,2006-01-01,2022-09-22,2006-01-02,2022-04-24,2008-01-01,2022-01-01,362.491650813878
KRRT0,Warroad / Longworth,US,MN,,KRRT,48.9415,-95.3485,328.0,America/Chicago,2006-01-01,2022-09-22,2006-01-01,2022-04-24,2006-01-01,2022-01-01,727.8983464138103
KRYM0,Ray S Miller Aaf / Camp Ripley Junction,US,MN,,KRYM,46.0912,-94.3605,351.0,America/Chicago,2012-07-13,2022-09-22,2014-02-02,2022-04-24,,,590.6992626944947
KRYV0,Watertown,US,WI,,KRYV,43.1696,-88.7232,254.0,America/Chicago,2006-01-01,2022-09-22,2006-01-01,2022-04-24,2006-01-01,2022-01-01,261.6814982535224
KRZL0,Rensselaer,US,IN,,KRZL,40.9479,-87.1826,213.0,America/Chicago,2011-05-16,2022-09-22,2011-05-17,2022-04-24,2020-01-01,2022-01-01,198.61789529821385
KRZN0,Siren,US,WI,,KRZN,45.8227,-92.3725,302.0,America/Chicago,2006-01-02,2022-09-22,2006-12-14,2022-04-24,2007-01-01,2022-01-01,496.06380957910824
KS320,Cooperstown,US,ND,,KS32,47.4228,-98.1059,434.0,America/Chicago,2015-09-26,2022-09-22,2015-09-27,2022-04-24,2020-01-01,2022-01-01,790.131212169427
KSAZ0,Staples,US,MN,,KSAZ,46.3809,-94.8066,393.0,America/Chicago,2006-01-01,2022-09-22,2006-01-01,2022-04-24,2006-01-01,2022-01-01,618.2650391298951
KSDA0,Shenandoah,US,IA,,KSDA,40.7516,-95.4137,296.0,America/Chicago,2006-01-01,2022-09-22,2006-01-01,2022-04-24,2015-01-01,2022-01-01,613.4308542172228
KSFY0,Savanna / Ayers,US,IL,,KSFY,42.0458,-90.1079,188.0,America/Chicago,2006-08-03,2022-09-22,2011-03-15,2022-04-24,2011-01-01,2022-01-01,327.0006382269547
KSGS0,Saint Paul / Inver Grove Heights,US,MN,,KSGS,44.8571,-93.0329,250.0,America/Chicago,2006-01-01,2022-09-22,2006-01-01,2022-04-24,2006-01-01,2022-01-01,500.2473726320299
KSHL0,Sheldon,US,IA,,KSHL,43.2084,-95.8334,433.0,America/Chicago,2006-01-01,2022-09-22,2006-01-01,2022-04-24,2015-01-01,2022-01-01,618.4696390889706
KSJX0,Beaver Island / Bonner Landing,US,MI,,KSJX,45.6923,-85.5666,204.0,America/Detroit,2006-01-01,2022-09-22,2006-01-01,2022-04-25,2006-01-01,2022-01-01,256.1458131176536
KSLB0,Storm Lake / Casino Beach,US,IA,,KSLB,42.5973,-95.2407,454.0,America/Chicago,2006-01-01,2022-09-22,2006-01-01,2022-04-24,2014-01-01,2022-01-01,588.0793985065967
KSLH0,Cheboygan,US,MI,,KSLH,45.6537,-84.5193,195.0,America/Detroit,2006-01-01,2022-09-22,2006-01-01,2022-04-25,2006-01-01,2022-01-01,239.98066688090066
KSPW0,Spencer / Birchwood Estates,US,IA,,KSPW,43.1655,-95.2028,408.0,America/Chicago,2006-01-01,2022-09-22,2006-01-01,2022-04-24,2006-01-01,2021-01-01,586.5223944721447
KSQI0,Sterling Rock Falls Airport / Yeoward Addition,US,IL,,KSQI,41.7428,-89.6763,197.0,America/Chicago,2006-01-01,2022-09-22,2006-01-01,2022-04-24,2007-01-01,2021-01-01,307.12985840654943
KSTE0,Stevens Point / Park Ridge,US,WI,,KSTE,44.5451,-89.5303,338.0,America/Chicago,2006-01-01,2022-09-22,2006-01-01,2022-04-24,2006-01-01,2022-01-01,332.3473329019325
KSTP0,Saint Paul,US,MN,,KSTP,44.9346,-93.0603,215.0,America/Chicago,1983-11-03,2022-09-22,1991-12-16,2022-04-24,2005-01-01,2022-01-01,503.2051800611909
KSUE0,Sturgeon Bay / Highland Heights Mobile Village,US,WI,,KSUE,44.8437,-87.4216,221.0,America/Chicago,2006-01-01,2022-09-22,2006-01-01,2022-04-24,2008-01-01,2022-01-01,258.44772452500615
KSUW0,Superior / South Superior,US,WI,,KSUW,46.6897,-92.0947,205.0,America/Chicago,2006-01-01,2022-09-22,2006-01-01,2022-04-24,2007-01-01,2022-01-01,514.898111288681
KSYN0,Stanton,US,MN,,KSYN,44.4755,-93.0163,280.0,America/Chicago,2006-01-01,2022-09-22,2006-01-04,2022-04-24,2006-01-01,2022-01-01,491.9238953904513
KTDZ0,Toledo / Cummings (Historical),US,OH,,KTDZ,41.5649,-83.4822,190.0,America/New_York,2006-01-01,2022-09-22,2006-01-01,2022-04-24,2006-01-01,2022-01-01,47.40709061899493
KTEW0,Mason,US,MI,,KTEW,42.5658,-84.4232,280.0,America/Detroit,2006-01-01,2022-09-22,2006-01-01,2022-04-25,2007-01-01,2022-01-01,41.971948449391
KTKC0,Tracy,US,MN,,KTKC,44.2491,-95.6073,408.0,America/Chicago,2006-01-01,2022-09-22,2006-01-04,2022-04-01,2008-01-01,2022-01-01,614.2136301975239
KTKV0,Tomahawk / Jersey City,US,WI,,KTKV,45.4694,-89.8057,453.0,America/Chicago,2006-01-01,2022-09-22,2006-01-04,2022-04-24,2008-01-01,2022-01-01,376.5501521816791
KTNU0,Newton / Coal Siding (Historical),US,IA,,KTNU,41.6744,-93.0217,291.0,America/Chicago,2006-01-01,2022-09-22,2006-01-01,2022-04-24,2011-01-01,2022-01-01,479.1853821309554
KTOB0,Dodge Center,US,MN,,KTOB,44.018,-92.8315,398.0,America/Chicago,2006-01-01,2022-09-22,2006-01-01,2022-03-30,2007-01-01,2022-01-01,475.5887214773892
KTQE0,Tekamah / Westside Mobile Home Park,US,NE,,KTQE,41.7635,-96.1779,313.0,America/Chicago,2006-01-01,2022-09-22,2006-01-01,2022-04-24,2006-01-01,2021-01-01,640.3123646279017
KTTF0,Monroe / Patterson Gardens,US,MI,,KTTF,41.9399,-83.4347,188.0,America/Detroit,2006-01-01,2022-09-22,2006-01-01,2022-04-25,2006-01-01,2022-01-01,25.244796621589895
KTVC0,Traverse City / Treverse City [Misspelling] / Town And Country Mobile Village,US,MI,,KTVC,44.7416,-85.5824,190.0,America/Detroit,1973-01-01,2022-09-22,1973-01-02,2022-04-24,1981-01-01,2022-01-01,196.8555339754713
KTWM0,Two Harbors / Waldo,US,MN,,KTWM,47.0491,-91.7452,327.0,America/Chicago,2006-01-01,2022-09-22,2006-01-03,2022-04-24,2007-01-01,2021-01-01,515.8616906435211
KTYQ0,Indianapolis / Jolietville,US,IN,,KTYQ,40.0307,-86.2514,281.0,America/Indiana/Indianapolis,2014-01-01,2022-09-22,2014-01-01,2022-04-25,2014-01-01,2022-01-01,199.93612654702557
KUBE0,Cumberland,US,WI,,KUBE,45.506,-91.9811,379.0,America/Chicago,2011-03-09,2022-09-22,2011-03-12,2022-04-24,2012-01-01,2022-01-01,469.3470942122995
KUCP0,New Castle / Parkstown,US,PA,,KUCP,41.0254,-80.4134,326.0,America/New_York,2006-05-01,2022-09-22,2006-05-02,2022-04-24,2008-01-01,2022-01-01,191.30472950459594
KUES0,Waukesha,US,WI,,KUES,43.041,-88.2371,278.0,America/Chicago,2006-01-01,2022-09-22,2015-06-01,2022-04-24,2020-01-01,2022-01-01,235.7526159325817
KUGN0,Chicago / Bancroft Corners,US,IL,,KUGN,42.4222,-87.8679,222.0,America/Chicago,2006-01-01,2022-09-22,2006-01-01,2022-04-24,2006-01-01,2021-01-01,211.57136681194325
KULM0,New Ulm / Traulich Estates,US,MN,,KULM,44.3197,-94.5023,308.0,America/Chicago,2006-01-01,2022-09-22,2006-01-01,2022-04-24,2006-01-01,2022-01-01,561.1112459614867
KUNU0,Juneau,US,WI,,KUNU,43.4265,-88.7038,285.0,America/Chicago,2006-01-01,2022-09-22,2006-01-01,2022-04-24,2009-01-01,2022-01-01,265.2243586429398
KUSE0,Wauseon / Ottokee,US,OH,,KUSE,41.6101,-84.1272,238.0,America/New_York,2020-01-14,2022-09-22,2020-01-14,2022-04-25,2020-01-01,2022-01-01,46.65027516719817
KVES0,Versailles / Needmore,US,OH,,KVES,40.2044,-84.5319,307.0,America/New_York,2010-03-08,2022-09-22,2010-03-09,2022-04-25,2015-01-01,2022-01-01,145.1992026483215
KVLL0,Troy / Birmingham,US,MI,,KVLL,42.5429,-83.1779,222.0,America/Detroit,2005-01-01,2022-09-22,2005-01-01,2022-04-25,2007-01-01,2022-01-01,36.488693251483625
KVNW0,Van Wert / Crow's Trailer Court,US,OH,,KVNW,40.8647,-84.6094,240.0,America/New_York,2020-01-14,2022-09-22,2020-01-14,2022-04-21,2020-01-01,2022-01-01,103.88682873446754
KVOK0,Volk / Camp Douglas,US,WI,,KVOK,43.9392,-90.2532,278.0,America/Chicago,1961-10-01,2022-09-22,1962-10-25,2022-04-22,1966-01-01,2021-01-01,349.8314165932526
KVPZ0,Valparaiso / Williamsburg Manor,US,IN,,KVPZ,41.454,-87.0071,235.0,America/Chicago,2006-01-01,2022-09-22,2006-01-01,2022-04-24,2006-01-01,2021-01-01,176.48426851303958
KVTA0,Newark / Central City (Historical),US,OH,,KVTA,40.0247,-82.4618,269.0,America/New_York,2006-01-01,2022-09-22,2006-01-01,2022-04-24,2006-01-01,2022-01-01,165.82593074504035
KVTI0,Vinton,US,IA,,KVTI,42.2186,-92.0259,257.0,America/Chicago,2006-01-01,2022-09-22,2006-01-01,2022-04-25,2015-01-01,2022-01-01,424.6349310851978
KVVV0,Ortonville / Hilltop Manor Mobile Home Park,US,MN,,KVVV,45.3057,-96.4244,336.0,America/Chicago,2006-01-01,2022-09-22,2006-01-01,2022-04-25,2008-01-01,2022-01-01,668.2667559239544
KVYS0,Peru / Dalzell,US,IL,,KVYS,41.3519,-89.1531,199.0,America/Chicago,2006-10-12,2022-09-22,2011-03-16,2022-04-25,2014-01-01,2022-01-01,285.65129558884837
KXNWG,Windsor Riverside,CA,ON,,,42.33,-82.93,188.0,America/Toronto,,,2000-01-01,2022-09-16,2000-01-01,2022-01-01,42.45284307215365
KXVG0,Longville,US,MN,,KXVG,47.0,-94.2,407.0,America/Chicago,2006-01-01,2022-09-22,2006-01-02,2022-04-06,2008-01-01,2022-01-01,611.3258900945591
KY230,Chetek,US,WI,,KY23,45.3062,-91.6362,322.0,America/Chicago,2020-01-14,2022-09-22,2020-01-14,2022-04-25,2020-01-01,2022-01-01,448.2399699185469
KY310,West Branch / Twin Pines Mobile Home Park,US,MI,,KY31,44.2448,-84.1798,269.0,America/Detroit,2020-01-14,2022-09-22,2020-01-14,2022-04-25,2020-01-01,2022-01-01,141.2798016571718
KY490,Walker / Benedict,US,MN,,KY49,47.1596,-94.6454,411.0,America/Chicago,2020-01-14,2022-09-22,2020-01-14,2022-04-25,2020-01-01,2022-01-01,635.0562641520139
KY500,Wautoma,US,WI,,KY50,44.0416,-89.3045,262.0,America/Chicago,2014-07-31,2022-09-22,2014-08-01,2022-04-24,2020-01-01,2022-01-01,307.72684784725163
KY510,Viroqua,US,WI,,KY51,43.5794,-90.8965,394.0,America/Chicago,2014-07-31,2022-09-22,2014-08-06,2022-04-25,2020-01-01,2022-01-01,374.6449861144069
KY630,Elbow Lake,US,MN,,KY63,45.9861,-95.992,368.0,America/Chicago,2014-07-31,2022-09-22,2014-08-01,2022-04-25,2020-01-01,2022-01-01,661.4437101681046
KY700,Ionia / Canterbury Estates Mobile Home Park,US,MI,,KY70,42.938,-85.0606,249.0,America/Detroit,2014-07-31,2022-09-22,2014-08-01,2022-04-25,2020-01-01,2022-01-01,83.27642750098184
KYIP0,Detroit / Denton,US,MI,,KYIP,42.2393,-83.531,218.0,America/Detroit,1973-01-01,2022-09-22,1973-01-03,2022-04-24,2005-01-01,2022-01-01,11.06510498540876
KYKN0,Yankton / Yangton [Misspelling],US,SD,,KYKN,42.9167,-97.3859,398.0,America/Chicago,2006-01-01,2022-09-22,2006-01-01,2022-04-24,2009-01-01,2022-01-01,696.795256263617
L1YUU,Thunder Bay Burwood,CA,ON,,,48.41,-89.28,200.0,America/Thunder_Bay,,,2005-11-01,2020-03-25,2005-01-01,2014-01-01,504.9229753606924
L6N28,New Glasgow,CA,ON,,,42.51,-81.64,198.0,America/Toronto,,,2000-01-01,2022-09-17,2000-01-01,2022-01-01,109.57661971984957
LII7V,Hazelwood,CA,ON,,,48.47,-89.27,322.0,America/Thunder_Bay,,,2016-01-04,2022-09-20,2016-01-01,2022-01-01,508.0979703627025
LVKGQ,Todd Field Airport,US,MN,,K14Y,45.9017,-94.8727,406.0,America/Chicago,2022-05-06,2022-09-21,,,,,608.7053452453534
LVT9Y,Centerville Municipal Airport,US,IA,,KTVK,40.6839,-92.901,314.0,America/Chicago,2022-04-23,2022-09-22,2022-04-23,2022-04-25,,,486.8005654533839
MAU7O,Mono Centre,CA,ON,71098,,44.03,-80.02,436.0,America/Toronto,2020-01-01,2022-09-21,2013-11-19,2022-09-19,2013-01-01,2022-01-01,225.89760748296476
MBPUU,Oakes Municipal Airport,US,ND,,K2D5,46.1731,-98.0799,407.0,America/Chicago,2022-05-06,2022-09-22,,,,,761.1050726592518
MEIQU,Amherstburg,CA,ON,,,42.1,-83.09,182.0,America/Toronto,,,2000-01-01,2022-09-17,2000-01-01,2022-01-01,34.71930689503764
MRBBU,St Claude,CA,MB,,,49.65,-98.37,311.0,America/Winnipeg,,,2000-01-01,2018-04-05,2000-01-01,2014-01-01,869.1570937216504
MRDYG,Waterloo Wellington 2,CA,ON,,,43.45,-80.38,314.0,America/Toronto,,,2003-12-01,2017-04-14,2003-01-01,2017-01-01,190.78483940155226
MUKMN,Oakbank,CA,MB,,,49.93,-96.85,246.0,America/Winnipeg,,,2000-01-01,2022-09-14,2000-01-01,2022-01-01,822.598170504599
MVZI9,Brantford Airport,CA,ON,71602,,43.14,-80.33,246.0,America/Toronto,2020-01-01,2022-09-21,2014-12-12,2022-09-19,2015-01-01,2022-01-01,185.09107353333107
N4N88,Thornbury 3,CA,ON,,,44.55,-80.47,212.0,America/Toronto,,,2006-05-01,2022-09-17,2006-01-01,2022-01-01,230.19141118673787
N5DTT,Schaumburg Regional Airport,US,IL,,K06C,41.9893,-88.1012,244.0,America/Chicago,2022-05-06,2022-09-21,,,,,224.41356375000538
N74GR,Dryden Regional,CA,ON,71527,,49.83,-92.74,413.0,America/Rainy_River,2020-01-01,2022-09-21,2010-09-24,2022-09-18,2011-01-01,2022-01-01,679.6473858917955
NCUQS,Portage Romance,CA,MB,,,49.98,-98.3,262.0,America/Winnipeg,,,2007-01-01,2022-09-17,2007-01-01,2022-01-01,878.3357356358517
NLAUF,Thunder Bay,CA,ON,71072,,48.37,-89.32,199.0,America/Thunder_Bay,2020-05-08,2022-09-21,2012-02-09,2022-09-18,1954-01-01,2022-01-01,503.6851337747241
NO755,Luce County Airport,US,MI,,KERY,46.3111,-85.4572,265.0,America/Detroit,2022-04-23,2022-09-22,2022-04-23,2022-04-25,,,294.7404436305659
O879F,St Thomas Wpcp,CA,ON,,,42.77,-81.21,209.0,America/Toronto,,,2000-01-01,2022-09-16,2000-01-01,2021-01-01,134.90052720214385
P02AU,Galesburg Municipal Airport,US,IL,,KGBG,40.9329,-90.4334,233.0,America/Chicago,2022-04-23,2022-09-22,2022-04-23,2022-04-25,,,357.70677749647695
P6529,Roseau Municipal Airport,US,MN,,KROX,48.85,-95.7,323.0,America/Chicago,2022-04-23,2022-09-22,2022-04-23,2022-04-25,,,737.5022501002496
QBXLB,Foldens,CA,ON,,,43.02,-80.78,328.0,America/Toronto,,,2000-01-01,2016-06-12,2000-01-01,2016-01-01,160.86480947267665
QHA0T,Marathon Airport,CA,ON,,,48.76,-86.35,315.0,America/Toronto,2020-01-01,2022-09-19,,,,,468.7568911227198
QHXQN,Wheeling Ohio County Airport,US,WV,,KHLG,40.1703,-80.6444,365.0,America/New_York,2022-04-23,2022-09-22,2022-04-24,2022-04-24,,,214.90174328014874
SFHU0,New Lisbon Mauston Airport,US,WI,,K82C,43.8387,-90.1377,276.0,America/Chicago,2022-05-06,2022-09-21,,,,,342.27235899832584
SJZBK,Holland,CA,MB,,,49.61,-98.88,375.0,America/Winnipeg,,,2000-01-01,2022-09-12,2000-01-01,2009-01-01,887.6107641117301
T4E4V,Grand Forks Air Force Base,US,ND,,KRDR,47.9667,-97.4,278.0,America/Chicago,2022-04-23,2022-09-22,2022-04-23,2022-04-24,,,775.1122110464798
TIH4U,Lake Elmo Airport,US,MN,,K21D,45.0002,-92.8549,285.0,America/Chicago,2022-05-06,2022-09-21,,,,,495.16824832868934
UACRV,Belmont,CA,MB,,,49.3,-99.45,482.0,America/Winnipeg,,,2000-01-01,2016-10-13,2000-01-01,2016-01-01,900.1558166233127
UJHR7,Kenora RCS,CA,ON,71151,,49.79,-94.38,413.0,America/Winnipeg,2020-01-01,2022-09-21,2008-07-21,2022-09-18,2008-01-01,2022-01-01,730.1278364022556
UO0HZ,Britton,US,SD,,KBTN,45.8152,-97.7431,401.0,America/Chicago,2022-04-23,2022-09-22,2022-04-23,2022-04-25,,,738.9681157469939
URWSF,Washington Island,US,WI,,K2P2,45.3883,-86.924,199.0,America/Detroit,2022-05-06,2022-09-22,,,,,270.1560626997055
UV7W2,St Labre,CA,MB,,,49.35,-96.04,352.0,America/Winnipeg,,,2000-09-01,2022-09-17,2000-01-01,2022-01-01,769.7838838813607
UYB6K,Thief River Falls Regional Airport,US,MN,,KTVF,48.0667,-96.1833,340.0,America/Chicago,2022-04-23,2022-09-22,2022-04-23,2022-04-24,,,728.1986831999529
V2BQ7,Perry Municipal Airport,US,IA,,KPRO,41.828,-94.1599,309.0,America/Chicago,2022-04-23,2022-09-08,2022-04-23,2022-04-23,,,536.2838148288107
V5792,Mine Centre Southwest,CA,ON,,,48.76,-92.62,361.0,America/Rainy_River,,,2005-10-01,2022-09-18,2005-01-01,2022-01-01,623.370059821496
VMWBN,Indian Bay,CA,MB,,,49.62,-95.2,327.0,America/Winnipeg,,,2000-01-01,2022-09-17,2000-01-01,2022-01-01,750.6814058353239
W5F5F,Harvey Municipal Airport,US,ND,,K5H4,47.7912,-99.9317,490.0,America/Chicago,2022-05-06,2022-09-08,,,,,878.9041448216
X9FED,Waskish Municipal Airport,US,MN,,KVWU,48.1501,-94.512,360.0,America/Chicago,2022-04-23,2022-09-01,2022-04-23,2022-04-25,,,665.2453001241108
XM44W,Marathon Airport,CA,ON,,,48.76,-86.35,315.0,America/Toronto,2020-01-01,2022-09-21,2018-10-29,2022-09-18,2018-01-01,2022-01-01,468.7568911227198
Y59TE,Carroll,US,IA,,KCIN,42.05,-94.7833,375.0,America/Chicago,2022-04-23,2022-09-22,2022-04-23,2022-04-25,,,566.7463359695449
Z7ZOG,Redwood Falls Municipal Airport,US,MN,,KRWF,44.5483,-95.0804,312.0,America/Chicago,2022-04-23,2022-09-22,2022-04-24,2022-04-24,,,592.2819861807805
ZFZUV,Winnipeg Intl Airport,CA,MB,,,49.91,-97.24,239.0,America/Winnipeg,2020-01-01,2022-09-21,2018-10-30,2022-09-19,2018-01-01,2021-01-01,836.1021034584161
ZNWZW,Columbus Municipal Airport,US,NE,,KOLU,41.45,-97.3333,440.0,America/Chicago,2022-04-23,2022-09-22,2022-04-24,2022-04-24,,,702.5742945820255
ZUQJS,Ephraim-Gibraltar Airport,US,WI,,K3D2,45.1357,-87.1881,234.0,America/Menominee,2022-05-06,2022-09-22,,,,,264.8771466484038
ZWC6W,Kapuskasing Airport,CA,ON,,,49.41,-82.47,226.0,America/Toronto,2020-01-01,2022-09-21,2018-10-29,2022-09-19,2018-01-01,2022-01-01,500.1498926824238
ZYITU,Selfridge Air National Guard Base,US,MI,,KMTC,42.6046,-82.8353,177.0,America/Detroit,2022-04-23,2022-09-22,2022-04-24,2022-04-25,,,53.491878107568695
